"city","district","statetin","pincode","created_at","updated_at"
"Portblair","South Andaman",35,744112,"2018-06-30 22:47:43","2018-06-30 22:47:43"
"Portblair","South Andaman",35,744102,"2018-06-30 22:47:43","2018-06-30 22:47:43"
"Portblair","South Andaman",35,744102,"2018-06-30 22:47:43","2018-06-30 22:47:43"
"Portblair","South Andaman",35,744101,"2018-06-30 22:47:43","2018-06-30 22:47:43"
"Portblair","South Andaman",35,744103,"2018-06-30 22:47:43","2018-06-30 22:47:43"
"Portblair","South Andaman",35,744101,"2018-06-30 22:47:43","2018-06-30 22:47:43"
"Port Blair","South Andaman",35,744101,"2018-06-30 22:47:43","2018-06-30 22:47:43"
"Port  Blair","South Andaman",35,744104,"2018-06-30 22:47:43","2018-06-30 22:47:43"
"Rangat","North And Middle Andaman",35,744201,"2018-06-30 22:47:43","2018-06-30 22:47:43"
"Ferrargunj","South Andaman",35,744107,"2018-06-30 22:47:43","2018-06-30 22:47:43"
"Nancowrie","Nicobar",35,744302,"2018-06-30 22:47:43","2018-06-30 22:47:43"
"Carnicobar","Nicobar",35,744301,"2018-06-30 22:47:43","2018-06-30 22:47:43"
"Diglipur","North And Middle Andaman",35,744202,"2018-06-30 22:47:43","2018-06-30 22:47:43"
"Port Blair","South Andaman",35,744105,"2018-06-30 22:47:43","2018-06-30 22:47:43"
"Port Blair","South Andaman",35,744102,"2018-06-30 22:47:43","2018-06-30 22:47:43"
"Port Blair","South Andaman",35,744211,"2018-06-30 22:47:43","2018-06-30 22:47:43"
"Hut Bay","South Andaman",35,744207,"2018-06-30 22:47:43","2018-06-30 22:47:43"
"Port Blair","South Andaman",35,744103,"2018-06-30 22:47:43","2018-06-30 22:47:43"
"Rangat","North And Middle Andaman",35,744209,"2018-06-30 22:47:43","2018-06-30 22:47:43"
"Nancowrie","Nicobar",35,744304,"2018-06-30 22:47:43","2018-06-30 22:47:43"
"Rangat","North And Middle Andaman",35,744203,"2018-06-30 22:47:43","2018-06-30 22:47:43"
"Mayabander","North And Middle Andaman",35,744204,"2018-06-30 22:47:43","2018-06-30 22:47:43"
"Nancowrie","Nicobar",35,744303,"2018-06-30 22:47:43","2018-06-30 22:47:43"
"Port Blair","North And Middle Andaman",35,744210,"2018-06-30 22:47:43","2018-06-30 22:47:43"
"Rangat","North And Middle Andaman",35,744205,"2018-06-30 22:47:43","2018-06-30 22:47:43"
"Port Blair","South Andaman",35,744106,"2018-06-30 22:47:43","2018-06-30 22:47:43"
"Ferrargunj","South Andaman",35,744206,"2018-06-30 22:47:43","2018-06-30 22:47:43"
"Rangat","North And Middle Andaman",35,744205,"2018-06-30 22:47:43","2018-06-30 22:47:43"
"Ferrargunj","South Andaman",35,744206,"2018-06-30 22:47:43","2018-06-30 22:47:43"
"Ferrargunj","South Andaman",35,744103,"2018-06-30 22:47:43","2018-06-30 22:47:43"
"Ferrargunj","South Andaman",35,744105,"2018-06-30 22:47:43","2018-06-30 22:47:43"
"Ferrargunj","South Andaman",35,744206,"2018-06-30 22:47:43","2018-06-30 22:47:43"
"Port Blair","South Andaman",35,744102,"2018-06-30 22:47:43","2018-06-30 22:47:43"
"Ferrargunj","South Andaman",35,744206,"2018-06-30 22:47:43","2018-06-30 22:47:43"
"Hut Bay","South Andaman",35,744207,"2018-06-30 22:47:43","2018-06-30 22:47:43"
"Port Blair","South Andaman",35,744103,"2018-06-30 22:47:43","2018-06-30 22:47:43"
"Rangat","North And Middle Andaman",35,744209,"2018-06-30 22:47:43","2018-06-30 22:47:43"
"Hut Bay","South Andaman",35,744207,"2018-06-30 22:47:43","2018-06-30 22:47:43"
"Port Blair","South Andaman",35,744103,"2018-06-30 22:47:43","2018-06-30 22:47:43"
"Mayabander","North And Middle Andaman",35,744204,"2018-06-30 22:47:43","2018-06-30 22:47:43"
"Diglipur","North And Middle Andaman",35,744202,"2018-06-30 22:47:43","2018-06-30 22:47:43"
"Port Blair","South Andaman",35,744105,"2018-06-30 22:47:43","2018-06-30 22:47:43"
"Port Blair","South Andaman",35,744105,"2018-06-30 22:47:43","2018-06-30 22:47:43"
"Port Blair","South Andaman",35,744103,"2018-06-30 22:47:43","2018-06-30 22:47:43"
"Port Blair","South Andaman",35,744105,"2018-06-30 22:47:43","2018-06-30 22:47:43"
"Nancowrie","Nicobar",35,744303,"2018-06-30 22:47:43","2018-06-30 22:47:43"
"Port Blair","South Andaman",35,744103,"2018-06-30 22:47:43","2018-06-30 22:47:43"
"Nancowrie","Nicobar",35,744303,"2018-06-30 22:47:43","2018-06-30 22:47:43"
"Ferrargunj","South Andaman",35,744206,"2018-06-30 22:47:43","2018-06-30 22:47:43"
"Nancowrie","Nicobar",35,744302,"2018-06-30 22:47:43","2018-06-30 22:47:43"
"Port Blair","South Andaman",35,744103,"2018-06-30 22:47:43","2018-06-30 22:47:43"
"Port Blair","South Andaman",35,744211,"2018-06-30 22:47:43","2018-06-30 22:47:43"
"Diglipur","North And Middle Andaman",35,744202,"2018-06-30 22:47:43","2018-06-30 22:47:43"
"Ferrargunj","South Andaman",35,744206,"2018-06-30 22:47:43","2018-06-30 22:47:43"
"Carnicobar","Nicobar",35,744301,"2018-06-30 22:47:43","2018-06-30 22:47:43"
"Ferrargunj","South Andaman",35,744206,"2018-06-30 22:47:43","2018-06-30 22:47:43"
"Diglipur","North And Middle Andaman",35,744202,"2018-06-30 22:47:43","2018-06-30 22:47:43"
"Port Blair","North And Middle Andaman",35,744210,"2018-06-30 22:47:43","2018-06-30 22:47:43"
"Rangat","North And Middle Andaman",35,744205,"2018-06-30 22:47:43","2018-06-30 22:47:43"
"Diglipur","North And Middle Andaman",35,744202,"2018-06-30 22:47:43","2018-06-30 22:47:43"
"Nancowrie","Nicobar",35,744302,"2018-06-30 22:47:43","2018-06-30 22:47:43"
"Carnicobar","Nicobar",35,744301,"2018-06-30 22:47:43","2018-06-30 22:47:43"
"Diglipur","North And Middle Andaman",35,744202,"2018-06-30 22:47:43","2018-06-30 22:47:43"
"Nancowrie","Nicobar",35,744302,"2018-06-30 22:47:43","2018-06-30 22:47:43"
"Ferrargunj","South Andaman",35,744206,"2018-06-30 22:47:43","2018-06-30 22:47:43"
"Nancowrie","Nicobar",35,744304,"2018-06-30 22:47:43","2018-06-30 22:47:43"
"Ferrargunj","South Andaman",35,744206,"2018-06-30 22:47:43","2018-06-30 22:47:43"
"Carnicobar","Nicobar",35,744301,"2018-06-30 22:47:43","2018-06-30 22:47:43"
"Diglipur","North And Middle Andaman",35,744202,"2018-06-30 22:47:43","2018-06-30 22:47:43"
"Nancowrie","Nicobar",35,744304,"2018-06-30 22:47:43","2018-06-30 22:47:43"
"Port Blair","South Andaman",35,744104,"2018-06-30 22:47:43","2018-06-30 22:47:43"
"Mayabander","North And Middle Andaman",35,744201,"2018-06-30 22:47:43","2018-06-30 22:47:43"
"Rangat","North And Middle Andaman",35,744205,"2018-06-30 22:47:43","2018-06-30 22:47:43"
"Ferrargunj","South Andaman",35,744103,"2018-06-30 22:47:43","2018-06-30 22:47:43"
"Rangat","North And Middle Andaman",35,744205,"2018-06-30 22:47:43","2018-06-30 22:47:43"
"Rangat","North And Middle Andaman",35,744205,"2018-06-30 22:47:43","2018-06-30 22:47:43"
"Diglipur","North And Middle Andaman",35,744202,"2018-06-30 22:47:43","2018-06-30 22:47:43"
"Port Blair","South Andaman",35,744211,"2018-06-30 22:47:43","2018-06-30 22:47:43"
"Nancowrie","Nicobar",35,744302,"2018-06-30 22:47:43","2018-06-30 22:47:43"
"Rangat","North And Middle Andaman",35,744201,"2018-06-30 22:47:43","2018-06-30 22:47:43"
"Mayabander","North And Middle Andaman",35,744204,"2018-06-30 22:47:43","2018-06-30 22:47:43"
"Hut Bay","South Andaman",35,744207,"2018-06-30 22:47:43","2018-06-30 22:47:43"
"Mayabander","North And Middle Andaman",35,744204,"2018-06-30 22:47:43","2018-06-30 22:47:43"
"Diglipur","North And Middle Andaman",35,744202,"2018-06-30 22:47:43","2018-06-30 22:47:43"
"Port Blair","South Andaman",35,744105,"2018-06-30 22:47:43","2018-06-30 22:47:43"
"Rangat","North And Middle Andaman",35,744205,"2018-06-30 22:47:43","2018-06-30 22:47:43"
"Carnicobar","Nicobar",35,744301,"2018-06-30 22:47:43","2018-06-30 22:47:43"
"Port Blair","South Andaman",35,744103,"2018-06-30 22:47:43","2018-06-30 22:47:43"
"Nancorie","Nicobar",35,744302,"2018-06-30 22:47:43","2018-06-30 22:47:43"
"Port Blair","North And Middle Andaman",35,744210,"2018-06-30 22:47:43","2018-06-30 22:47:43"
"Port Blair","South Andaman",35,744105,"2018-06-30 22:47:43","2018-06-30 22:47:43"
"Ferrargunj","South Andaman",35,744206,"2018-06-30 22:47:43","2018-06-30 22:47:43"
"Diglipur","North And Middle Andaman",35,744202,"2018-06-30 22:47:43","2018-06-30 22:47:43"
"Port Blair","South Andaman",35,744104,"2018-06-30 22:47:43","2018-06-30 22:47:43"
"Diglipur","North And Middle Andaman",35,744202,"2018-06-30 22:47:43","2018-06-30 22:47:43"
"Ferrargunj","South Andaman",35,744107,"2018-06-30 22:47:43","2018-06-30 22:47:43"
"Port Blair","South Andaman",35,744211,"2018-06-30 22:47:43","2018-06-30 22:47:43"
"Rangat","North And Middle Andaman",35,744201,"2018-06-30 22:47:43","2018-06-30 22:47:43"
"Diglipur","North And Middle Andaman",35,744202,"2018-06-30 22:47:43","2018-06-30 22:47:43"
"Carnicobar","Nicobar",35,744303,"2018-06-30 22:47:43","2018-06-30 22:47:43"
"Nancowrie","Nicobar",35,744303,"2018-06-30 22:47:43","2018-06-30 22:47:43"
"Mayabander","North And Middle Andaman",35,744204,"2018-06-30 22:47:43","2018-06-30 22:47:43"
"Kurnool","Kurnool",37,518004,"2018-06-30 22:47:43","2018-06-30 22:47:43"
"Kurnool","Kurnool",37,518002,"2018-06-30 22:47:43","2018-06-30 22:47:43"
"Kurnool","Kurnool",37,518002,"2018-06-30 22:47:43","2018-06-30 22:47:43"
"Kurnool","Kurnool",37,518001,"2018-06-30 22:47:43","2018-06-30 22:47:43"
"Kurnool","Kurnool",37,518003,"2018-06-30 22:47:43","2018-06-30 22:47:43"
"Kurnool","Kurnool",37,518002,"2018-06-30 22:47:43","2018-06-30 22:47:43"
"Kurnool","Kurnool",37,518004,"2018-06-30 22:47:43","2018-06-30 22:47:43"
"Kurnool","Kurnool",37,518002,"2018-06-30 22:47:43","2018-06-30 22:47:43"
"Kurnool","Kurnool",37,518004,"2018-06-30 22:47:43","2018-06-30 22:47:43"
"Kurnool","Kurnool",37,518006,"2018-06-30 22:47:43","2018-06-30 22:47:43"
"Kurnool","Kurnool",37,518302,"2018-06-30 22:47:43","2018-06-30 22:47:43"
"Adoni","Kurnool",37,518301,"2018-06-30 22:47:43","2018-06-30 22:47:43"
"Adoni","Kurnool",37,518301,"2018-06-30 22:47:43","2018-06-30 22:47:43"
"Adoni","Kurnool",37,518301,"2018-06-30 22:47:43","2018-06-30 22:47:43"
"Adoni","Kurnool",37,518301,"2018-06-30 22:47:43","2018-06-30 22:47:43"
"Kurnool","Kurnool",37,518395,"2018-06-30 22:47:43","2018-06-30 22:47:43"
"Kurnool","Kurnool",37,518347,"2018-06-30 22:47:43","2018-06-30 22:47:43"
"Kurnool","Kurnool",37,518348,"2018-06-30 22:47:43","2018-06-30 22:47:43"
"Kurnool","Kurnool",37,518333,"2018-06-30 22:47:43","2018-06-30 22:47:43"
"Kurnool","Kurnool",37,518346,"2018-06-30 22:47:43","2018-06-30 22:47:43"
"Kurnool","Kurnool",37,518308,"2018-06-30 22:47:43","2018-06-30 22:47:43"
"Kurnool","Kurnool",37,518350,"2018-06-30 22:47:43","2018-06-30 22:47:43"
"Kurnool","Kurnool",37,518344,"2018-06-30 22:47:43","2018-06-30 22:47:43"
"Kurnool","Kurnool",37,518385,"2018-06-30 22:47:43","2018-06-30 22:47:43"
"Kurnool","Kurnool",37,518345,"2018-06-30 22:47:43","2018-06-30 22:47:43"
"Kurnool","Kurnool",37,518343,"2018-06-30 22:47:43","2018-06-30 22:47:43"
"Kurnool","Kurnool",37,518396,"2018-06-30 22:47:43","2018-06-30 22:47:43"
"Pattikonda","Kurnool",37,518380,"2018-06-30 22:47:43","2018-06-30 22:47:43"
"Kurnool","Kurnool",37,518323,"2018-06-30 22:47:43","2018-06-30 22:47:43"
"Kurnool","Kurnool",37,518390,"2018-06-30 22:47:43","2018-06-30 22:47:43"
"Kurnool","Kurnool",37,518360,"2018-06-30 22:47:43","2018-06-30 22:47:43"
"Adoni","Kurnool",37,518360,"2018-06-30 22:47:43","2018-06-30 22:47:43"
"Kurnool","Kurnool",37,518533,"2018-06-30 22:47:43","2018-06-30 22:47:43"
"Kurnool","Kurnool",37,518313,"2018-06-30 22:47:43","2018-06-30 22:47:43"
"Kurnool","Kurnool",37,518422,"2018-06-30 22:47:43","2018-06-30 22:47:43"
"Kurnool","Kurnool",37,518462,"2018-06-30 22:47:43","2018-06-30 22:47:43"
"Kurnool","Kurnool",37,518599,"2018-06-30 22:47:43","2018-06-30 22:47:43"
"Kurnool","Kurnool",37,518432,"2018-06-30 22:47:43","2018-06-30 22:47:43"
"Kurnool","Kurnool",37,518206,"2018-06-30 22:47:43","2018-06-30 22:47:43"
"Kurnool","Kurnool",37,518465,"2018-06-30 22:47:43","2018-06-30 22:47:43"
"Kurnool","Kurnool",37,518222,"2018-06-30 22:47:43","2018-06-30 22:47:43"
"Kurnool","Kurnool",37,518222,"2018-06-30 22:47:43","2018-06-30 22:47:43"
"Kurnool","Kurnool",37,518225,"2018-06-30 22:47:43","2018-06-30 22:47:43"
"Kurnool","Kurnool",37,518508,"2018-06-30 22:47:43","2018-06-30 22:47:43"
"Kurnool","Kurnool",37,518452,"2018-06-30 22:47:43","2018-06-30 22:47:43"
"Gonegandla","Kurnool",37,518463,"2018-06-30 22:47:43","2018-06-30 22:47:43"
"Kurnool","Kurnool",37,518466,"2018-06-30 22:47:43","2018-06-30 22:47:43"
"Kurnool","Kurnool",37,518220,"2018-06-30 22:47:43","2018-06-30 22:47:43"
"Kodumur","Kurnool",37,518464,"2018-06-30 22:47:43","2018-06-30 22:47:43"
"Kurnool","Kurnool",37,518411,"2018-06-30 22:47:43","2018-06-30 22:47:43"
"Kurnool","Kurnool",37,518467,"2018-06-30 22:47:43","2018-06-30 22:47:43"
"Kurnool","Kurnool",37,518405,"2018-06-30 22:47:43","2018-06-30 22:47:43"
"Kurnool","Kurnool",37,518401,"2018-06-30 22:47:43","2018-06-30 22:47:43"
"Kurnool","Kurnool",37,518401,"2018-06-30 22:47:43","2018-06-30 22:47:43"
"Kurnool","Kurnool",37,518442,"2018-06-30 22:47:43","2018-06-30 22:47:43"
"Peapally","Kurnool",37,518221,"2018-06-30 22:47:43","2018-06-30 22:47:43"
"Kurnool","Kurnool",37,518468,"2018-06-30 22:47:43","2018-06-30 22:47:43"
"Pagidyala","Kurnool",37,518412,"2018-06-30 22:47:43","2018-06-30 22:47:43"
"Kurnool","Kurnool",37,518598,"2018-06-30 22:47:43","2018-06-30 22:47:43"
"Kurnool","Kurnool",37,518101,"2018-06-30 22:47:43","2018-06-30 22:47:43"
"Srisailam","Kurnool",37,518102,"2018-06-30 22:47:43","2018-06-30 22:47:43"
"Kurnool","Kurnool",37,518218,"2018-06-30 22:47:43","2018-06-30 22:47:43"
"Kurnool","Kurnool",37,518216,"2018-06-30 22:47:43","2018-06-30 22:47:43"
"Kurnool","Kurnool",37,518010,"2018-06-30 22:47:43","2018-06-30 22:47:43"
"Kurnool","Kurnool",37,518005,"2018-06-30 22:47:43","2018-06-30 22:47:43"
"Kurnool","Kurnool",37,518001,"2018-06-30 22:47:43","2018-06-30 22:47:43"
"Kurnool","Kurnool",37,518004,"2018-06-30 22:47:43","2018-06-30 22:47:43"
"Kurnool","Kurnool",37,518001,"2018-06-30 22:47:43","2018-06-30 22:47:43"
"Kurnool","Kurnool",37,518001,"2018-06-30 22:47:43","2018-06-30 22:47:43"
"Krishna","Krishna",37,521180,"2018-06-30 22:47:43","2018-06-30 22:47:43"
"Krishna","Krishna",37,521250,"2018-06-30 22:47:43","2018-06-30 22:47:43"
"Vijayawada (Urban)","Krishna",37,520008,"2018-06-30 22:47:43","2018-06-30 22:47:43"
"Krishna","Krishna",37,521229,"2018-06-30 22:47:43","2018-06-30 22:47:43"
"Krishna","Krishna",37,521246,"2018-06-30 22:47:43","2018-06-30 22:47:43"
"Krishna","Krishna",37,521164,"2018-06-30 22:47:43","2018-06-30 22:47:43"
"Krishna","Krishna",37,521228,"2018-06-30 22:47:43","2018-06-30 22:47:43"
"Krishna","Krishna",37,521457,"2018-06-30 22:47:43","2018-06-30 22:47:43"
"Vuyyuru","Krishna",37,521165,"2018-06-30 22:47:43","2018-06-30 22:47:43"
"Vijayawada (Urban)","Krishna",37,520011,"2018-06-30 22:47:43","2018-06-30 22:47:43"
"Krishna","Krishna",37,521256,"2018-06-30 22:47:43","2018-06-30 22:47:43"
"Krishna","Krishna",37,521247,"2018-06-30 22:47:43","2018-06-30 22:47:43"
"Krishna","Krishna",37,521183,"2018-06-30 22:47:43","2018-06-30 22:47:43"
"Krishna","Krishna",37,521107,"2018-06-30 22:47:43","2018-06-30 22:47:43"
"Krishna","Krishna",37,521230,"2018-06-30 22:47:43","2018-06-30 22:47:43"
"Krishna","Krishna",37,521185,"2018-06-30 22:47:43","2018-06-30 22:47:43"
"Krishna","Krishna",37,521212,"2018-06-30 22:47:43","2018-06-30 22:47:43"
"Krishna","Krishna",37,521286,"2018-06-30 22:47:43","2018-06-30 22:47:43"
"Krishna","Krishna",37,521190,"2018-06-30 22:47:43","2018-06-30 22:47:43"
"Vijayawada (Urban)","Krishna",37,520003,"2018-06-30 22:47:43","2018-06-30 22:47:43"
"Krishna","Krishna",37,521241,"2018-06-30 22:47:43","2018-06-30 22:47:43"
"Vijayawada (Urban)","Krishna",37,520011,"2018-06-30 22:47:43","2018-06-30 22:47:43"
"Krishna","Krishna",37,521163,"2018-06-30 22:47:43","2018-06-30 22:47:43"
"Vijayawada (Urban)","Krishna",37,520001,"2018-06-30 22:47:43","2018-06-30 22:47:43"
"Vijayawada (Urban)","Krishna",37,520001,"2018-06-30 22:47:43","2018-06-30 22:47:43"
"Ibrahimpatnam","Krishna",37,521456,"2018-06-30 22:47:43","2018-06-30 22:47:43"
"Krishna","Krishna",37,521402,"2018-06-30 22:47:43","2018-06-30 22:47:43"
"Krishna","Krishna",37,521170,"2018-06-30 22:47:43","2018-06-30 22:47:43"
"Krishna","Krishna",37,521165,"2018-06-30 22:47:43","2018-06-30 22:47:43"
"Vijayawada (Urban)","Krishna",37,520001,"2018-06-30 22:47:43","2018-06-30 22:47:43"
"Vijayawada (Urban)","Krishna",37,520002,"2018-06-30 22:47:43","2018-06-30 22:47:43"
"Vijayawada (Urban)","Krishna",37,520007,"2018-06-30 22:47:43","2018-06-30 22:47:43"
"Vijayawada (Urban)","Krishna",37,520011,"2018-06-30 22:47:43","2018-06-30 22:47:43"
"Vijayawada (Urban)","Krishna",37,520010,"2018-06-30 22:47:43","2018-06-30 22:47:43"
"Vijayawada (Urban)","Krishna",37,520002,"2018-06-30 22:47:43","2018-06-30 22:47:43"
"Vijayawada (Urban)","Krishna",37,520002,"2018-06-30 22:47:43","2018-06-30 22:47:43"
"Vijayawada (Urban)","Krishna",37,520004,"2018-06-30 22:47:43","2018-06-30 22:47:43"
"Vijayawada (Urban)","Krishna",37,520007,"2018-06-30 22:47:43","2018-06-30 22:47:43"
"Krishna","Krishna",37,521151,"2018-06-30 22:47:43","2018-06-30 22:47:43"
"Vijayawada (Urban)","Krishna",37,520013,"2018-06-30 22:47:43","2018-06-30 22:47:43"
"Vuyyuru","Krishna",37,521153,"2018-06-30 22:47:43","2018-06-30 22:47:43"
"Vijayawada (Urban)","Krishna",37,520004,"2018-06-30 22:47:43","2018-06-30 22:47:43"
"Vijayawada (Urban)","Krishna",37,520010,"2018-06-30 22:47:43","2018-06-30 22:47:43"
"Vijayawada","Krishna",37,521104,"2018-06-30 22:47:43","2018-06-30 22:47:43"
"Vijayawada (Urban)","Krishna",37,520013,"2018-06-30 22:47:43","2018-06-30 22:47:43"
"Vijayawada (Urban)","Krishna",37,520010,"2018-06-30 22:47:43","2018-06-30 22:47:43"
"Krishna","Krishna",37,521139,"2018-06-30 22:47:43","2018-06-30 22:47:43"
"Krishna","Krishna",37,521137,"2018-06-30 22:47:43","2018-06-30 22:47:43"
"Vijayawada (Urban)","Krishna",37,520010,"2018-06-30 22:47:43","2018-06-30 22:47:43"
"Vijayawada (Rural)","Krishna",37,521108,"2018-06-30 22:47:43","2018-06-30 22:47:43"
"Vijayawada (Urban)","Krishna",37,520002,"2018-06-30 22:47:43","2018-06-30 22:47:43"
"Vijayawada (Urban)","Krishna",37,520008,"2018-06-30 22:47:43","2018-06-30 22:47:43"
"Krishna","Krishna",37,521403,"2018-06-30 22:47:43","2018-06-30 22:47:43"
"Krishna","Krishna",37,521401,"2018-06-30 22:47:43","2018-06-30 22:47:43"
"Krishna","Krishna",37,521109,"2018-06-30 22:47:43","2018-06-30 22:47:43"
"Krishna","Krishna",37,521235,"2018-06-30 22:47:43","2018-06-30 22:47:43"
"Krishna","Krishna",37,521110,"2018-06-30 22:47:43","2018-06-30 22:47:43"
"Vijayawada (Urban)","Krishna",37,520010,"2018-06-30 22:47:43","2018-06-30 22:47:43"
"Krishna","Krishna",37,521245,"2018-06-30 22:47:43","2018-06-30 22:47:43"
"Vijayawada (Urban)","Krishna",37,520003,"2018-06-30 22:47:43","2018-06-30 22:47:43"
"Vijayawada (Urban)","Krishna",37,520012,"2018-06-30 22:47:43","2018-06-30 22:47:43"
"Vijayawada (Urban)","Krishna",37,520008,"2018-06-30 22:47:43","2018-06-30 22:47:43"
"Vijayawada (Urban)","Krishna",37,520015,"2018-06-30 22:47:43","2018-06-30 22:47:43"
"Krishna","Krishna",37,521211,"2018-06-30 22:47:43","2018-06-30 22:47:43"
"Krishna","Krishna",37,521102,"2018-06-30 22:47:43","2018-06-30 22:47:43"
"Vijayawada (Urban)","Krishna",37,520012,"2018-06-30 22:47:43","2018-06-30 22:47:43"
"Krishna","Krishna",37,521182,"2018-06-30 22:47:43","2018-06-30 22:47:43"
"Krishna","Krishna",37,521178,"2018-06-30 22:47:43","2018-06-30 22:47:43"
"Vijayawada (Urban)","Krishna",37,520001,"2018-06-30 22:47:43","2018-06-30 22:47:43"
"Vijayawada (Urban)","Krishna",37,520003,"2018-06-30 22:47:43","2018-06-30 22:47:43"
"Vijayawada (Urban)","Krishna",37,520003,"2018-06-30 22:47:43","2018-06-30 22:47:43"
"Krishna","Krishna",37,521101,"2018-06-30 22:47:43","2018-06-30 22:47:43"
"Krishna","Krishna",37,521225,"2018-06-30 22:47:43","2018-06-30 22:47:43"
"Krishna","Krishna",37,521456,"2018-06-30 22:47:43","2018-06-30 22:47:43"
"Krishna","Krishna",37,521175,"2018-06-30 22:47:43","2018-06-30 22:47:43"
"Krishna","Krishna",37,521181,"2018-06-30 22:47:43","2018-06-30 22:47:43"
"Vijayawada (Urban)","Krishna",37,520012,"2018-06-30 22:47:43","2018-06-30 22:47:43"
"Krishna","Krishna",37,521227,"2018-06-30 22:47:43","2018-06-30 22:47:43"
"Bapatla","Guntur",37,522329,"2018-06-30 22:47:43","2018-06-30 22:47:43"
"Vuyyuru","Krishna",37,521165,"2018-06-30 22:47:43","2018-06-30 22:47:43"
"Kothapeta Taluk","East Godavari",37,533223,"2018-06-30 22:47:43","2018-06-30 22:47:43"
"Kothapeta Taluk","East Godavari",37,533229,"2018-06-30 22:47:43","2018-06-30 22:47:43"
"Proddatur","Cuddapah",37,516360,"2018-06-30 22:47:43","2018-06-30 22:47:43"
"Pulivendla","Cuddapah",37,516421,"2018-06-30 22:47:43","2018-06-30 22:47:43"
"Pulivendla","Cuddapah",37,516484,"2018-06-30 22:47:43","2018-06-30 22:47:43"
"Kamalapuram","Cuddapah",37,516289,"2018-06-30 22:47:43","2018-06-30 22:47:43"
"Pulivendla","Cuddapah",37,516396,"2018-06-30 22:47:43","2018-06-30 22:47:43"
"Cuddapah","Cuddapah",37,516218,"2018-06-30 22:47:43","2018-06-30 22:47:43"
"Kamalapuram","Cuddapah",37,516339,"2018-06-30 22:47:43","2018-06-30 22:47:43"
"Cuddapah","Cuddapah",37,516216,"2018-06-30 22:47:43","2018-06-30 22:47:43"
"Pulivedla","Cuddapah",37,516454,"2018-06-30 22:47:43","2018-06-30 22:47:43"
"Pulivendla","Cuddapah",37,516350,"2018-06-30 22:47:43","2018-06-30 22:47:43"
"Muddanur","Cuddapah",37,516474,"2018-06-30 22:47:43","2018-06-30 22:47:43"
"Pulivendla","Cuddapah",37,516401,"2018-06-30 22:47:43","2018-06-30 22:47:43"
"Pulivendla","Cuddapah",37,516329,"2018-06-30 22:47:43","2018-06-30 22:47:43"
"Cuddapah","Cuddapah",37,516293,"2018-06-30 22:47:43","2018-06-30 22:47:43"
"Pulivendla","Cuddapah",37,516349,"2018-06-30 22:47:43","2018-06-30 22:47:43"
"Muddanur","Cuddapah",37,516444,"2018-06-30 22:47:43","2018-06-30 22:47:43"
"Kamalapuram","Cuddapah",37,516321,"2018-06-30 22:47:43","2018-06-30 22:47:43"
"Pulivendla","Cuddapah",37,516390,"2018-06-30 22:47:43","2018-06-30 22:47:43"
"Pulivendla","Cuddapah",37,516391,"2018-06-30 22:47:43","2018-06-30 22:47:43"
"Muddanur","Cuddapah",37,516464,"2018-06-30 22:47:43","2018-06-30 22:47:43"
"Kamalapuram","Cuddapah",37,516310,"2018-06-30 22:47:43","2018-06-30 22:47:43"
"Jammalmadugu","Cuddapah",37,516433,"2018-06-30 22:47:43","2018-06-30 22:47:43"
"Proddatur","Cuddapah",37,516431,"2018-06-30 22:47:43","2018-06-30 22:47:43"
"Proddatur","Cuddapah",37,516175,"2018-06-30 22:47:43","2018-06-30 22:47:43"
"Jammalamadugu","Cuddapah",37,516434,"2018-06-30 22:47:43","2018-06-30 22:47:43"
"Jammalamadugu","Cuddapah",37,516434,"2018-06-30 22:47:43","2018-06-30 22:47:43"
"Proddatur","Cuddapah",37,516362,"2018-06-30 22:47:43","2018-06-30 22:47:43"
"Proddatur","Cuddapah",37,516359,"2018-06-30 22:47:43","2018-06-30 22:47:43"
"Proddatur","Cuddapah",37,516360,"2018-06-30 22:47:43","2018-06-30 22:47:43"
"Proddatur","Cuddapah",37,516360,"2018-06-30 22:47:43","2018-06-30 22:47:43"
"Muddanur","Cuddapah",37,516380,"2018-06-30 22:47:43","2018-06-30 22:47:43"
"Mylavaram","Cuddapah",37,516439,"2018-06-30 22:47:43","2018-06-30 22:47:43"
"Proddatur","Cuddapah",37,516172,"2018-06-30 22:47:43","2018-06-30 22:47:43"
"Proddatur","Cuddapah",37,516173,"2018-06-30 22:47:43","2018-06-30 22:47:43"
"Jammalamadugu","Cuddapah",37,516411,"2018-06-30 22:47:43","2018-06-30 22:47:43"
"Proddatur","Cuddapah",37,516360,"2018-06-30 22:47:43","2018-06-30 22:47:43"
"Proddatur","Cuddapah",37,516360,"2018-06-30 22:47:43","2018-06-30 22:47:43"
"Jammalamadugu","Cuddapah",37,516432,"2018-06-30 22:47:43","2018-06-30 22:47:43"
"Kamalapuram","Cuddapah",37,516309,"2018-06-30 22:47:43","2018-06-30 22:47:43"
"Yerraguntla","Cuddapah",37,516309,"2018-06-30 22:47:43","2018-06-30 22:47:43"
"Proddatur","Cuddapah",37,516361,"2018-06-30 22:47:43","2018-06-30 22:47:43"
"Jammalamadugu","Cuddapah",37,516434,"2018-06-30 22:47:43","2018-06-30 22:47:43"
"Proddatur","Cuddapah",37,516355,"2018-06-30 22:47:43","2018-06-30 22:47:43"
"Yerraguntla","Cuddapah",37,516311,"2018-06-30 22:47:43","2018-06-30 22:47:43"
"Yerraguntla","Cuddapah",37,516312,"2018-06-30 22:47:43","2018-06-30 22:47:43"
"NA","Kurnool",37,518217,"2018-06-30 22:47:43","2018-06-30 22:47:43"
"Proddatur","Cuddapah",37,516360,"2018-06-30 22:47:43","2018-06-30 22:47:43"
"Guntur","Guntur",37,522004,"2018-06-30 22:47:43","2018-06-30 22:47:43"
"NA","Guntur",37,522201,"2018-06-30 22:47:43","2018-06-30 22:47:43"
"Visakhapatnam (Rural)","Visakhapatnam",37,530048,"2018-06-30 22:47:43","2018-06-30 22:47:43"
"Repalle","Guntur",37,522265,"2018-06-30 22:47:43","2018-06-30 22:47:43"
"Chodavaram","Visakhapatnam",37,531036,"2018-06-30 22:47:43","2018-06-30 22:47:43"
"Visakhapatnam (Urban)","Visakhapatnam",37,530016,"2018-06-30 22:47:43","2018-06-30 22:47:43"
"Visakhapatnam (Urban)","Visakhapatnam",37,530020,"2018-06-30 22:47:43","2018-06-30 22:47:43"
"Visakhapatnam (Urban)","Visakhapatnam",37,530017,"2018-06-30 22:47:43","2018-06-30 22:47:43"
"Visakhapatnam (Urban)","Visakhapatnam",37,530002,"2018-06-30 22:47:43","2018-06-30 22:47:43"
"Paravada","Visakhapatnam",37,531019,"2018-06-30 22:47:43","2018-06-30 22:47:43"
"NA","Visakhapatnam",37,530052,"2018-06-30 22:47:43","2018-06-30 22:47:43"
"Pendurthi","Visakhapatnam",37,530051,"2018-06-30 22:47:43","2018-06-30 22:47:43"
"Visakhapatnam (Rural)","Visakhapatnam",37,530049,"2018-06-30 22:47:43","2018-06-30 22:47:43"
"Tadpatri","Ananthapur",37,515413,"2018-06-30 22:47:43","2018-06-30 22:47:43"
"NA","Ananthapur",37,515722,"2018-06-30 22:47:43","2018-06-30 22:47:43"
"Etcherla","Srikakulam",37,532410,"2018-06-30 22:47:43","2018-06-30 22:47:43"
"Denkada","Vizianagaram",37,535006,"2018-06-30 22:47:43","2018-06-30 22:47:43"
"Kurnool","Kurnool",37,518007,"2018-06-30 22:47:43","2018-06-30 22:47:43"
"Allagadda","Kurnool",37,518674,"2018-06-30 22:47:43","2018-06-30 22:47:43"
"Chapad","Cuddapah",37,516356,"2018-06-30 22:47:43","2018-06-30 22:47:43"
"Proddatur","Cuddapah",37,516360,"2018-06-30 22:47:43","2018-06-30 22:47:43"
"Cuddapah","Cuddapah",37,516002,"2018-06-30 22:47:43","2018-06-30 22:47:43"
"Hindupur","Ananthapur",37,515202,"2018-06-30 22:47:43","2018-06-30 22:47:43"
"Puttaparthi","Ananthapur",37,515134,"2018-06-30 22:47:43","2018-06-30 22:47:43"
"Guntur","Guntur",37,522005,"2018-06-30 22:47:43","2018-06-30 22:47:43"
"Denkada","Vizianagaram",37,535213,"2018-06-30 22:47:43","2018-06-30 22:47:43"
"Bapatla","Guntur",37,522102,"2018-06-30 22:47:43","2018-06-30 22:47:43"
"Visakhapatnam","Visakhapatnam",37,530003,"2018-06-30 22:47:43","2018-06-30 22:47:43"
"Visakhapatnam","Visakhapatnam",37,530003,"2018-06-30 22:47:43","2018-06-30 22:47:43"
"Visakhapatnam","Visakhapatnam",37,530003,"2018-06-30 22:47:43","2018-06-30 22:47:43"
"Visakhapatnam","Visakhapatnam",37,530003,"2018-06-30 22:47:43","2018-06-30 22:47:43"
"Visakhapatnam","Visakhapatnam",37,530001,"2018-06-30 22:47:43","2018-06-30 22:47:43"
"Visakhapatnam","Visakhapatnam",37,530022,"2018-06-30 22:47:43","2018-06-30 22:47:43"
"Visakhapatnam","Visakhapatnam",37,530002,"2018-06-30 22:47:43","2018-06-30 22:47:43"
"Visakhapatnam","Visakhapatnam",37,530001,"2018-06-30 22:47:43","2018-06-30 22:47:43"
"Visakhapatnam","Visakhapatnam",37,530004,"2018-06-30 22:47:43","2018-06-30 22:47:43"
"Visakhapatnam","Visakhapatnam",37,530016,"2018-06-30 22:47:43","2018-06-30 22:47:43"
"Visakhapatnam","Visakhapatnam",37,530012,"2018-06-30 22:47:43","2018-06-30 22:47:43"
"Visakhapatnam","Visakhapatnam",37,530004,"2018-06-30 22:47:43","2018-06-30 22:47:43"
"Visakhapatnam","Visakhapatnam",37,530008,"2018-06-30 22:47:43","2018-06-30 22:47:43"
"Visakhapatnam","Visakhapatnam",37,530009,"2018-06-30 22:47:43","2018-06-30 22:47:43"
"Visakhapatnam","Visakhapatnam",37,530007,"2018-06-30 22:47:43","2018-06-30 22:47:43"
"Visakhapatnam","Visakhapatnam",37,530005,"2018-06-30 22:47:43","2018-06-30 22:47:43"
"Visakhapatnam","Visakhapatnam",37,530014,"2018-06-30 22:47:43","2018-06-30 22:47:43"
"Visakhapatnam","Visakhapatnam",37,530032,"2018-06-30 22:47:43","2018-06-30 22:47:43"
"A.Konduru","Krishna",37,521226,"2018-06-30 22:47:43","2018-06-30 22:47:43"
"Visakhapatnam","Visakhapatnam",37,530002,"2018-06-30 22:47:43","2018-06-30 22:47:43"
"Nuzvid","Krishna",37,521202,"2018-06-30 22:47:43","2018-06-30 22:47:43"
"Visakhapatnam Rural","Visakhapatnam",37,530009,"2018-06-30 22:47:43","2018-06-30 22:47:43"
"Tuggali","Kurnool",37,518349,"2018-06-30 22:47:43","2018-06-30 22:47:43"
"Jiyyammavalsa","Vizianagaram",37,535594,"2018-06-30 22:47:43","2018-06-30 22:47:43"
"Nuzvid","Krishna",37,521201,"2018-06-30 22:47:43","2018-06-30 22:47:43"
"Srikalahasti","Chittoor",37,517645,"2018-06-30 22:47:43","2018-06-30 22:47:43"
"Nellore","Nellore",37,524002,"2018-06-30 22:47:43","2018-06-30 22:47:43"
"Puttaparthy","Ananthapur",37,515134,"2018-06-30 22:47:43","2018-06-30 22:47:43"
"Penamaluru Mandal","Krishna",37,521134,"2018-06-30 22:47:43","2018-06-30 22:47:43"
"Medikonduru","Guntur",37,522009,"2018-06-30 22:47:43","2018-06-30 22:47:43"
"Tekkali Mandal","Srikakulam",37,532203,"2018-06-30 22:47:43","2018-06-30 22:47:43"
"Gajuwaka","Visakhapatnam",37,530053,"2018-06-30 22:47:43","2018-06-30 22:47:43"
"Amadalavalasa","Srikakulam",37,532186,"2018-06-30 22:47:43","2018-06-30 22:47:43"
"Addatigala","East Godavari",37,533428,"2018-06-30 22:47:43","2018-06-30 22:47:43"
"Tuni","East Godavari",37,533401,"2018-06-30 22:47:43","2018-06-30 22:47:43"
"Sankhavaram","East Godavari",37,533406,"2018-06-30 22:47:43","2018-06-30 22:47:43"
"Gollaprolu","East Godavari",37,533449,"2018-06-30 22:47:43","2018-06-30 22:47:43"
"Prathipadu","East Godavari",37,533430,"2018-06-30 22:47:43","2018-06-30 22:47:43"
"Gollaprolu","East Godavari",37,533445,"2018-06-30 22:47:43","2018-06-30 22:47:43"
"Jaggampeta","East Godavari",37,533435,"2018-06-30 22:47:43","2018-06-30 22:47:43"
"Kirlampudi","East Godavari",37,533431,"2018-06-30 22:47:43","2018-06-30 22:47:43"
"Kotananduru","East Godavari",37,533407,"2018-06-30 22:47:43","2018-06-30 22:47:43"
"Kothapalli","East Godavari",37,533447,"2018-06-30 22:47:43","2018-06-30 22:47:43"
"Pithapuram","East Godavari",37,533450,"2018-06-30 22:47:43","2018-06-30 22:47:43"
"Pithapuram","East Godavari",37,533433,"2018-06-30 22:47:43","2018-06-30 22:47:43"
"Peddapuram","East Godavari",37,533437,"2018-06-30 22:47:43","2018-06-30 22:47:43"
"Peddapuram","East Godavari",37,533437,"2018-06-30 22:47:43","2018-06-30 22:47:43"
"Pithapuram","East Godavari",37,533450,"2018-06-30 22:47:43","2018-06-30 22:47:43"
"Pithapuram","East Godavari",37,533450,"2018-06-30 22:47:43","2018-06-30 22:47:43"
"Prathipadu","East Godavari",37,533432,"2018-06-30 22:47:43","2018-06-30 22:47:43"
"Rajavommangi","East Godavari",37,533436,"2018-06-30 22:47:43","2018-06-30 22:47:43"
"Rangampeta","East Godavari",37,533291,"2018-06-30 22:47:43","2018-06-30 22:47:43"
"Samalkota","East Godavari",37,533440,"2018-06-30 22:47:43","2018-06-30 22:47:43"
"Samalkota","East Godavari",37,533440,"2018-06-30 22:47:43","2018-06-30 22:47:43"
"Sankhavaram","East Godavari",37,533446,"2018-06-30 22:47:43","2018-06-30 22:47:43"
"Thondangi","East Godavari",37,533408,"2018-06-30 22:47:43","2018-06-30 22:47:43"
"Tuni","East Godavari",37,533401,"2018-06-30 22:47:43","2018-06-30 22:47:43"
"Tuni","East Godavari",37,533401,"2018-06-30 22:47:43","2018-06-30 22:47:43"
"Kothapalli","East Godavari",37,533448,"2018-06-30 22:47:43","2018-06-30 22:47:43"
"Samalkot","East Godavari",37,533434,"2018-06-30 22:47:43","2018-06-30 22:47:43"
"Yeleswaram","East Godavari",37,533429,"2018-06-30 22:47:43","2018-06-30 22:47:43"
"Y Ramavaram","East Godavari",37,533483,"2018-06-30 22:47:43","2018-06-30 22:47:43"
"Kakinada (Urban)","East Godavari",37,533005,"2018-06-30 22:47:43","2018-06-30 22:47:43"
"Kakinada (Urban)","East Godavari",37,533005,"2018-06-30 22:47:43","2018-06-30 22:47:43"
"Kakinada (Urban)","East Godavari",37,533003,"2018-06-30 22:47:43","2018-06-30 22:47:43"
"Kakinada (Urban)","East Godavari",37,533002,"2018-06-30 22:47:43","2018-06-30 22:47:43"
"Tallarevu","East Godavari",37,533461,"2018-06-30 22:47:43","2018-06-30 22:47:43"
"Kakinada (Urban)","East Godavari",37,533003,"2018-06-30 22:47:43","2018-06-30 22:47:43"
"Kakinada (Urban)","East Godavari",37,533004,"2018-06-30 22:47:43","2018-06-30 22:47:43"
"Kakinada (Urban)","East Godavari",37,533001,"2018-06-30 22:47:43","2018-06-30 22:47:43"
"Kajuluru","East Godavari",37,533468,"2018-06-30 22:47:43","2018-06-30 22:47:43"
"Y Ramavaram","East Godavari",37,533348,"2018-06-30 22:47:43","2018-06-30 22:47:43"
"Yatapaka","East Godavari",37,533351,"2018-06-30 22:47:43","2018-06-30 22:47:43"
"Chintoor Mandal","East Godavari",37,533347,"2018-06-30 22:47:43","2018-06-30 22:47:43"
"Yatapaka","East Godavari",37,533352,"2018-06-30 22:47:43","2018-06-30 22:47:43"
"Durgi","Guntur",37,522612,"2018-06-30 22:47:43","2018-06-30 22:47:43"
"Ipuru","Guntur",37,522658,"2018-06-30 22:47:43","2018-06-30 22:47:43"
"Karempudi","Guntur",37,522614,"2018-06-30 22:47:43","2018-06-30 22:47:43"
"Narasaraopet","Guntur",37,522647,"2018-06-30 22:47:43","2018-06-30 22:47:43"
"Vinukonda","Guntur",37,522661,"2018-06-30 22:47:43","2018-06-30 22:47:43"
"Narasaraopet","Guntur",37,522601,"2018-06-30 22:47:43","2018-06-30 22:47:43"
"Nekarikallu","Guntur",37,522615,"2018-06-30 22:47:43","2018-06-30 22:47:43"
"Narasaraopet","Guntur",37,522601,"2018-06-30 22:47:43","2018-06-30 22:47:43"
"Narasaraopet","Guntur",37,522647,"2018-06-30 22:47:43","2018-06-30 22:47:43"
"Nuzendla","Guntur",37,522660,"2018-06-30 22:47:43","2018-06-30 22:47:43"
"Narasaraopet","Guntur",37,522649,"2018-06-30 22:47:43","2018-06-30 22:47:43"
"Phirangipuram","Guntur",37,522529,"2018-06-30 22:47:43","2018-06-30 22:47:43"
"Narasaraopet","Guntur",37,522601,"2018-06-30 22:47:43","2018-06-30 22:47:43"
"Narasaraopet","Guntur",37,522603,"2018-06-30 22:47:43","2018-06-30 22:47:43"
"Rompicherla","Guntur",37,522617,"2018-06-30 22:47:43","2018-06-30 22:47:43"
"Nadendla","Guntur",37,522549,"2018-06-30 22:47:43","2018-06-30 22:47:43"
"Nuzendla","Guntur",37,522659,"2018-06-30 22:47:43","2018-06-30 22:47:43"
"Savalyapuram","Guntur",37,522646,"2018-06-30 22:47:43","2018-06-30 22:47:43"
"Vinukonda","Guntur",37,522657,"2018-06-30 22:47:43","2018-06-30 22:47:43"
"Vinukonda","Guntur",37,522647,"2018-06-30 22:47:43","2018-06-30 22:47:43"
"Narasaraopet","Guntur",37,522616,"2018-06-30 22:47:43","2018-06-30 22:47:43"
"Edlapadu","Guntur",37,522233,"2018-06-30 22:47:43","2018-06-30 22:47:43"
"Nadendla","Guntur",37,522619,"2018-06-30 22:47:43","2018-06-30 22:47:43"
"Chilakaluripet","Guntur",37,522611,"2018-06-30 22:47:43","2018-06-30 22:47:43"
"Narasaraopet","Guntur",37,522616,"2018-06-30 22:47:43","2018-06-30 22:47:43"
"Chilakaluripet","Guntur",37,522626,"2018-06-30 22:47:43","2018-06-30 22:47:43"
"Nadendla","Guntur",37,522234,"2018-06-30 22:47:43","2018-06-30 22:47:43"
"Narasaraopet","Guntur",37,522616,"2018-06-30 22:47:43","2018-06-30 22:47:43"
"Atchampet","Guntur",37,522409,"2018-06-30 22:47:43","2018-06-30 22:47:43"
"Bellamkonda","Guntur",37,522411,"2018-06-30 22:47:43","2018-06-30 22:47:43"
"Sattenapalle","Guntur",37,522437,"2018-06-30 22:47:43","2018-06-30 22:47:43"
"Dachepalle","Guntur",37,522414,"2018-06-30 22:47:43","2018-06-30 22:47:43"
"Sattenapalle","Guntur",37,522403,"2018-06-30 22:47:43","2018-06-30 22:47:43"
"Gurazalla","Guntur",37,522415,"2018-06-30 22:47:43","2018-06-30 22:47:43"
"Krosuru","Guntur",37,522410,"2018-06-30 22:47:43","2018-06-30 22:47:43"
"Macherla","Guntur",37,522426,"2018-06-30 22:47:43","2018-06-30 22:47:43"
"Sattenapalle","Guntur",37,522435,"2018-06-30 22:47:43","2018-06-30 22:47:43"
"Medikonduru","Guntur",37,522438,"2018-06-30 22:47:43","2018-06-30 22:47:43"
"Muppalla","Guntur",37,522408,"2018-06-30 22:47:43","2018-06-30 22:47:43"
"Pedakurapadu","Guntur",37,522436,"2018-06-30 22:47:43","2018-06-30 22:47:43"
"Pedakurpadu","Guntur",37,522402,"2018-06-30 22:47:43","2018-06-30 22:47:43"
"Piduguralla","Guntur",37,522413,"2018-06-30 22:47:43","2018-06-30 22:47:43"
"Narasaraopet","Guntur",37,522426,"2018-06-30 22:47:43","2018-06-30 22:47:43"
"Rajupalem","Guntur",37,522412,"2018-06-30 22:47:43","2018-06-30 22:47:43"
"Rentachintala","Guntur",37,522421,"2018-06-30 22:47:43","2018-06-30 22:47:43"
"Medikonduru","Guntur",37,522401,"2018-06-30 22:47:43","2018-06-30 22:47:43"
"Veldurthy","Guntur",37,522613,"2018-06-30 22:47:43","2018-06-30 22:47:43"
"Macherla","Guntur",37,522439,"2018-06-30 22:47:43","2018-06-30 22:47:43"
"Kanigiri","Prakasam",37,523111,"2018-06-30 22:47:43","2018-06-30 22:47:43"
"Kanigiri","Prakasam",37,523117,"2018-06-30 22:47:43","2018-06-30 22:47:43"
"Kanigiri","Prakasam",37,523228,"2018-06-30 22:47:43","2018-06-30 22:47:43"
"Kanigiri","Prakasam",37,523230,"2018-06-30 22:47:43","2018-06-30 22:47:43"
"Kanigiri","Prakasam",37,523252,"2018-06-30 22:47:43","2018-06-30 22:47:43"
"Kanigiri","Prakasam",37,523254,"2018-06-30 22:47:43","2018-06-30 22:47:43"
"Kanigiri","Prakasam",37,523253,"2018-06-30 22:47:43","2018-06-30 22:47:43"
"Kanigiri","Prakasam",37,523224,"2018-06-30 22:47:43","2018-06-30 22:47:43"
"Ongole","Prakasam",37,523201,"2018-06-30 22:47:43","2018-06-30 22:47:43"
"Ongole","Prakasam",37,523001,"2018-06-30 22:47:43","2018-06-30 22:47:43"
"Ongole","Prakasam",37,523180,"2018-06-30 22:47:43","2018-06-30 22:47:43"
"Ongole","Prakasam",37,523226,"2018-06-30 22:47:43","2018-06-30 22:47:43"
"Ongole","Prakasam",37,523001,"2018-06-30 22:47:43","2018-06-30 22:47:43"
"Ongole","Prakasam",37,523280,"2018-06-30 22:47:43","2018-06-30 22:47:43"
"Ongole","Prakasam",37,523001,"2018-06-30 22:47:43","2018-06-30 22:47:43"
"Ongole","Prakasam",37,523182,"2018-06-30 22:47:43","2018-06-30 22:47:43"
"Ongole","Prakasam",37,523303,"2018-06-30 22:47:43","2018-06-30 22:47:43"
"NA","Prakasam",37,523171,"2018-06-30 22:47:43","2018-06-30 22:47:43"
"Chirala","Prakasam",37,523155,"2018-06-30 22:47:43","2018-06-30 22:47:43"
"Chirala","Prakasam",37,523135,"2018-06-30 22:47:43","2018-06-30 22:47:43"
"Chirala","Prakasam",37,523157,"2018-06-30 22:47:43","2018-06-30 22:47:43"
"Chirala","Prakasam",37,523190,"2018-06-30 22:47:43","2018-06-30 22:47:43"
"Chirala","Prakasam",37,523167,"2018-06-30 22:47:43","2018-06-30 22:47:43"
"Chirala","Prakasam",37,523166,"2018-06-30 22:47:43","2018-06-30 22:47:43"
"Chirala","Prakasam",37,523165,"2018-06-30 22:47:43","2018-06-30 22:47:43"
"Chirala","Prakasam",37,523181,"2018-06-30 22:47:43","2018-06-30 22:47:43"
"Chirala","Prakasam",37,523168,"2018-06-30 22:47:43","2018-06-30 22:47:43"
"Chirala","Prakasam",37,523156,"2018-06-30 22:47:43","2018-06-30 22:47:43"
"Chirala","Prakasam",37,523184,"2018-06-30 22:47:43","2018-06-30 22:47:43"
"Chirala","Prakasam",37,523169,"2018-06-30 22:47:43","2018-06-30 22:47:43"
"Chirala","Prakasam",37,523157,"2018-06-30 22:47:43","2018-06-30 22:47:43"
"Chirala","Prakasam",37,523157,"2018-06-30 22:47:43","2018-06-30 22:47:43"
"Chirala","Prakasam",37,523157,"2018-06-30 22:47:43","2018-06-30 22:47:43"
"Vetapalem","Prakasam",37,523187,"2018-06-30 22:47:43","2018-06-30 22:47:43"
"Chirala","Prakasam",37,523155,"2018-06-30 22:47:43","2018-06-30 22:47:43"
"Chirala","Prakasam",37,523185,"2018-06-30 22:47:43","2018-06-30 22:47:43"
"Chirala","Prakasam",37,523170,"2018-06-30 22:47:43","2018-06-30 22:47:43"
"Chirala","Prakasam",37,523187,"2018-06-30 22:47:43","2018-06-30 22:47:43"
"Kandukur","Prakasam",37,523281,"2018-06-30 22:47:43","2018-06-30 22:47:43"
"Kandukur","Prakasam",37,523271,"2018-06-30 22:47:43","2018-06-30 22:47:43"
"Kandukur","Prakasam",37,523105,"2018-06-30 22:47:43","2018-06-30 22:47:43"
"Kandukur","Prakasam",37,523105,"2018-06-30 22:47:43","2018-06-30 22:47:43"
"Kandukur","Prakasam",37,523270,"2018-06-30 22:47:43","2018-06-30 22:47:43"
"Kandukur","Prakasam",37,523114,"2018-06-30 22:47:43","2018-06-30 22:47:43"
"Kandukur","Prakasam",37,523115,"2018-06-30 22:47:43","2018-06-30 22:47:43"
"Kandukur","Prakasam",37,523273,"2018-06-30 22:47:43","2018-06-30 22:47:43"
"Kandukur","Prakasam",37,523113,"2018-06-30 22:47:43","2018-06-30 22:47:43"
"Kandukur","Prakasam",37,523109,"2018-06-30 22:47:43","2018-06-30 22:47:43"
"Kandukur","Prakasam",37,523291,"2018-06-30 22:47:43","2018-06-30 22:47:43"
"Kandukur","Prakasam",37,523101,"2018-06-30 22:47:43","2018-06-30 22:47:43"
"Kandukur","Prakasam",37,523274,"2018-06-30 22:47:43","2018-06-30 22:47:43"
"Tangutur","Prakasam",37,523274,"2018-06-30 22:47:43","2018-06-30 22:47:43"
"Kandukur","Prakasam",37,523292,"2018-06-30 22:47:43","2018-06-30 22:47:43"
"Kandukur","Prakasam",37,523279,"2018-06-30 22:47:43","2018-06-30 22:47:43"
"Kandukur","Prakasam",37,523116,"2018-06-30 22:47:43","2018-06-30 22:47:43"
"Kandukur","Prakasam",37,523104,"2018-06-30 22:47:43","2018-06-30 22:47:43"
"Kanigiri","Prakasam",37,523110,"2018-06-30 22:47:43","2018-06-30 22:47:43"
"Kanigiri","Prakasam",37,523112,"2018-06-30 22:47:43","2018-06-30 22:47:43"
"Kanigiri","Prakasam",37,523247,"2018-06-30 22:47:43","2018-06-30 22:47:43"
"Kanigiri","Prakasam",37,523246,"2018-06-30 22:47:43","2018-06-30 22:47:43"
"Kanigiri","Prakasam",37,523227,"2018-06-30 22:47:43","2018-06-30 22:47:43"
"Kanigiri","Prakasam",37,523241,"2018-06-30 22:47:43","2018-06-30 22:47:43"
"Kanigiri","Prakasam",37,523304,"2018-06-30 22:47:43","2018-06-30 22:47:43"
"Kanigiri","Prakasam",37,523223,"2018-06-30 22:47:43","2018-06-30 22:47:43"
"Kanigiri","Prakasam",37,523265,"2018-06-30 22:47:43","2018-06-30 22:47:43"
"Kanigiri","Prakasam",37,523108,"2018-06-30 22:47:43","2018-06-30 22:47:43"
"Kanigiri","Prakasam",37,523245,"2018-06-30 22:47:43","2018-06-30 22:47:43"
"Ongole","Prakasam",37,523286,"2018-06-30 22:47:43","2018-06-30 22:47:43"
"Ongole","Prakasam",37,523002,"2018-06-30 22:47:43","2018-06-30 22:47:43"
"Ongole","Prakasam",37,523002,"2018-06-30 22:47:43","2018-06-30 22:47:43"
"Ongole","Prakasam",37,523211,"2018-06-30 22:47:43","2018-06-30 22:47:43"
"Ongole","Prakasam",37,523002,"2018-06-30 22:47:43","2018-06-30 22:47:43"
"Ongole","Prakasam",37,523301,"2018-06-30 22:47:43","2018-06-30 22:47:43"
"Ongole","Prakasam",37,523212,"2018-06-30 22:47:43","2018-06-30 22:47:43"
"Ongole","Prakasam",37,523261,"2018-06-30 22:47:43","2018-06-30 22:47:43"
"Ongole","Prakasam",37,523001,"2018-06-30 22:47:43","2018-06-30 22:47:43"
"Ongole","Prakasam",37,523183,"2018-06-30 22:47:43","2018-06-30 22:47:43"
"Ongole","Prakasam",37,523001,"2018-06-30 22:47:43","2018-06-30 22:47:43"
"Ongole","Prakasam",37,523001,"2018-06-30 22:47:43","2018-06-30 22:47:43"
"Ongole","Prakasam",37,523001,"2018-06-30 22:47:43","2018-06-30 22:47:43"
"Ongole","Prakasam",37,523213,"2018-06-30 22:47:43","2018-06-30 22:47:43"
"Ongole","Prakasam",37,523302,"2018-06-30 22:47:43","2018-06-30 22:47:43"
"Ongole","Prakasam",37,523225,"2018-06-30 22:47:43","2018-06-30 22:47:43"
"Ongole","Prakasam",37,523001,"2018-06-30 22:47:43","2018-06-30 22:47:43"
"Ongole","Prakasam",37,523001,"2018-06-30 22:47:43","2018-06-30 22:47:43"
"Ongole","Prakasam",37,523264,"2018-06-30 22:47:43","2018-06-30 22:47:43"
"Ongole","Prakasam",37,523263,"2018-06-30 22:47:43","2018-06-30 22:47:43"
"Ongole","Prakasam",37,523262,"2018-06-30 22:47:43","2018-06-30 22:47:43"
"Ongole","Prakasam",37,523001,"2018-06-30 22:47:43","2018-06-30 22:47:43"
"Ongole","Prakasam",37,523186,"2018-06-30 22:47:43","2018-06-30 22:47:43"
"Ongole","Prakasam",37,523260,"2018-06-30 22:47:43","2018-06-30 22:47:43"
"Rajahmundry (Urban)","East Godavari",37,533101,"2018-06-30 22:47:43","2018-06-30 22:47:43"
"Rajahmundry (Urban)","East Godavari",37,533104,"2018-06-30 22:47:43","2018-06-30 22:47:43"
"Rajahmundry (Urban)","East Godavari",37,533103,"2018-06-30 22:47:43","2018-06-30 22:47:43"
"Devipatnam","East Godavari",37,533339,"2018-06-30 22:47:43","2018-06-30 22:47:43"
"Korukonda","East Godavari",37,533292,"2018-06-30 22:47:43","2018-06-30 22:47:43"
"NA","East Godavari",37,533125,"2018-06-30 22:47:43","2018-06-30 22:47:43"
"Rajahmundry (Urban)","East Godavari",37,533101,"2018-06-30 22:47:43","2018-06-30 22:47:43"
"Gokavaram","East Godavari",37,533286,"2018-06-30 22:47:43","2018-06-30 22:47:43"
"Rajahmundry (Urban)","East Godavari",37,533105,"2018-06-30 22:47:43","2018-06-30 22:47:43"
"Rajahmundry Rural","East Godavari",37,533124,"2018-06-30 22:47:43","2018-06-30 22:47:43"
"Kadiyam","East Godavari",37,533126,"2018-06-30 22:47:43","2018-06-30 22:47:43"
"Korukonda","East Godavari",37,533289,"2018-06-30 22:47:43","2018-06-30 22:47:43"
"Korukonda","East Godavari",37,533290,"2018-06-30 22:47:43","2018-06-30 22:47:43"
"Maredumilli","East Godavari",37,533295,"2018-06-30 22:47:43","2018-06-30 22:47:43"
"Rajahmundry (Urban)","East Godavari",37,533106,"2018-06-30 22:47:43","2018-06-30 22:47:43"
"Rajanagaram","East Godavari",37,533294,"2018-06-30 22:47:43","2018-06-30 22:47:43"
"Rampachodavaram","East Godavari",37,533288,"2018-06-30 22:47:43","2018-06-30 22:47:43"
"Rajahmundry (Urban)","East Godavari",37,533103,"2018-06-30 22:47:43","2018-06-30 22:47:43"
"Rajahmundry (Urban)","East Godavari",37,533105,"2018-06-30 22:47:43","2018-06-30 22:47:43"
"Sithanagaram","East Godavari",37,533287,"2018-06-30 22:47:43","2018-06-30 22:47:43"
"Rajahmundry (Urban)","East Godavari",37,533106,"2018-06-30 22:47:43","2018-06-30 22:47:43"
"Rajahmundry (Urban)","East Godavari",37,533105,"2018-06-30 22:47:43","2018-06-30 22:47:43"
"Rajahmundry (Urban)","East Godavari",37,533103,"2018-06-30 22:47:43","2018-06-30 22:47:43"
"Rajahmundry (Urban)","East Godavari",37,533101,"2018-06-30 22:47:43","2018-06-30 22:47:43"
"Rajahmundry Rural","East Godavari",37,533293,"2018-06-30 22:47:43","2018-06-30 22:47:43"
"Rajahmundry (Urban)","East Godavari",37,533105,"2018-06-30 22:47:43","2018-06-30 22:47:43"
"Rajahmundry (Urban)","East Godavari",37,533101,"2018-06-30 22:47:43","2018-06-30 22:47:43"
"Rajahmundry (Urban)","East Godavari",37,533105,"2018-06-30 22:47:43","2018-06-30 22:47:43"
"Bikkavolu","East Godavari",37,533343,"2018-06-30 22:47:43","2018-06-30 22:47:43"
"Rayavaram","East Godavari",37,533261,"2018-06-30 22:47:43","2018-06-30 22:47:43"
"Pamarru","East Godavari",37,533263,"2018-06-30 22:47:43","2018-06-30 22:47:43"
"Ramachandrapuram","East Godavari",37,533262,"2018-06-30 22:47:43","2018-06-30 22:47:43"
"Pamarru","East Godavari",37,533306,"2018-06-30 22:47:43","2018-06-30 22:47:43"
"Pamarru","East Godavari",37,533305,"2018-06-30 22:47:43","2018-06-30 22:47:43"
"Bikkavolu","East Godavari",37,533345,"2018-06-30 22:47:43","2018-06-30 22:47:43"
"Ramachandrapuram","East Godavari",37,533256,"2018-06-30 22:47:43","2018-06-30 22:47:43"
"Rayavaram","East Godavari",37,533346,"2018-06-30 22:47:43","2018-06-30 22:47:43"
"Ramachandrapuram","East Godavari",37,533262,"2018-06-30 22:47:43","2018-06-30 22:47:43"
"Alamuru","East Godavari",37,533233,"2018-06-30 22:47:43","2018-06-30 22:47:43"
"Anaparthy","East Godavari",37,533342,"2018-06-30 22:47:43","2018-06-30 22:47:43"
"Kapileswarapuram","East Godavari",37,533307,"2018-06-30 22:47:43","2018-06-30 22:47:43"
"Alamuru","East Godavari",37,533232,"2018-06-30 22:47:43","2018-06-30 22:47:43"
"Mandapeta","East Godavari",37,533341,"2018-06-30 22:47:43","2018-06-30 22:47:43"
"Kapileswarapuram","East Godavari",37,533309,"2018-06-30 22:47:43","2018-06-30 22:47:43"
"Anaparthy","East Godavari",37,533264,"2018-06-30 22:47:43","2018-06-30 22:47:43"
"Mandapeta","East Godavari",37,533308,"2018-06-30 22:47:43","2018-06-30 22:47:43"
"Mandapeta","East Godavari",37,533340,"2018-06-30 22:47:43","2018-06-30 22:47:43"
"Mandapeta","East Godavari",37,533234,"2018-06-30 22:47:43","2018-06-30 22:47:43"
"Gokavaram","East Godavari",37,533285,"2018-06-30 22:47:43","2018-06-30 22:47:43"
"Pulivendla","Cuddapah",37,516330,"2018-06-30 22:47:43","2018-06-30 22:47:43"
"Kodavaluru","Nellore",37,524319,"2018-06-30 22:47:43","2018-06-30 22:47:43"
"Nellore","Nellore",37,524347,"2018-06-30 22:47:43","2018-06-30 22:47:43"
"Guntur","Guntur",37,522238,"2018-06-30 22:47:44","2018-06-30 22:47:44"
"Penugonda (mdl)","West Godavari",37,534320,"2018-06-30 22:47:44","2018-06-30 22:47:44"
"Penugonda (mdl)","West Godavari",37,534320,"2018-06-30 22:47:44","2018-06-30 22:47:44"
"Penumantra (mdl)","West Godavari",37,534124,"2018-06-30 22:47:44","2018-06-30 22:47:44"
"Peravali (mdl)","West Godavari",37,534328,"2018-06-30 22:47:44","2018-06-30 22:47:44"
"Poduru (mdl)","West Godavari",37,534327,"2018-06-30 22:47:44","2018-06-30 22:47:44"
"Penumantra (mdl)","West Godavari",37,534238,"2018-06-30 22:47:44","2018-06-30 22:47:44"
"Viravasaram (mdl)","West Godavari",37,534247,"2018-06-30 22:47:44","2018-06-30 22:47:44"
"Bhimavaram","West Godavari",37,534208,"2018-06-30 22:47:44","2018-06-30 22:47:44"
"Narasapuram","West Godavari",37,534275,"2018-06-30 22:47:44","2018-06-30 22:47:44"
"Narsapur (mdl)","West Godavari",37,534275,"2018-06-30 22:47:44","2018-06-30 22:47:44"
"Tanuku","West Godavari",37,534211,"2018-06-30 22:47:44","2018-06-30 22:47:44"
"Penugonda (mdl)","West Godavari",37,534326,"2018-06-30 22:47:44","2018-06-30 22:47:44"
"Narsapur (mdl)","West Godavari",37,534280,"2018-06-30 22:47:44","2018-06-30 22:47:44"
"Bhimavaram","West Godavari",37,534202,"2018-06-30 22:47:44","2018-06-30 22:47:44"
"Bhimavaram","West Godavari",37,534201,"2018-06-30 22:47:44","2018-06-30 22:47:44"
"Bhimavaram","West Godavari",37,534202,"2018-06-30 22:47:44","2018-06-30 22:47:44"
"Kalla (mdl)","West Godavari",37,534204,"2018-06-30 22:47:44","2018-06-30 22:47:44"
"Palakoderu (mdl)","West Godavari",37,534243,"2018-06-30 22:47:44","2018-06-30 22:47:44"
"Tanuku","West Godavari",37,534211,"2018-06-30 22:47:44","2018-06-30 22:47:44"
"Tanuku","West Godavari",37,534211,"2018-06-30 22:47:44","2018-06-30 22:47:44"
"Bhimavaram(mdl)","West Godavari",37,534207,"2018-06-30 22:47:44","2018-06-30 22:47:44"
"Undi (mdl)","West Godavari",37,534199,"2018-06-30 22:47:44","2018-06-30 22:47:44"
"Penugonda (mdl)","West Godavari",37,534324,"2018-06-30 22:47:44","2018-06-30 22:47:44"
"Velpur (mdl)","West Godavari",37,534222,"2018-06-30 22:47:44","2018-06-30 22:47:44"
"Tanuku (mdl)","West Godavari",37,534215,"2018-06-30 22:47:44","2018-06-30 22:47:44"
"Viravasaram (mdl)","West Godavari",37,534245,"2018-06-30 22:47:44","2018-06-30 22:47:44"
"Vundrajavaram (mdl)","West Godavari",37,534216,"2018-06-30 22:47:44","2018-06-30 22:47:44"
"Kalla (mdl)","West Godavari",37,534236,"2018-06-30 22:47:44","2018-06-30 22:47:44"
"Akividu (mdl)","West Godavari",37,534235,"2018-06-30 22:47:44","2018-06-30 22:47:44"
"NA","West Godavari",37,534126,"2018-06-30 22:47:44","2018-06-30 22:47:44"
"Attili (mdl)","West Godavari",37,534230,"2018-06-30 22:47:44","2018-06-30 22:47:44"
"Atchanta (mdl)","West Godavari",37,534123,"2018-06-30 22:47:44","2018-06-30 22:47:44"
"Bhimavaram","West Godavari",37,534202,"2018-06-30 22:47:44","2018-06-30 22:47:44"
"Bhimavaram","West Godavari",37,534201,"2018-06-30 22:47:44","2018-06-30 22:47:44"
"Bhimavaram (mdl)","West Godavari",37,534239,"2018-06-30 22:47:44","2018-06-30 22:47:44"
"Bhimavaram","West Godavari",37,534202,"2018-06-30 22:47:44","2018-06-30 22:47:44"
"Ellamanchili (mdl)","West Godavari",37,534266,"2018-06-30 22:47:44","2018-06-30 22:47:44"
"Ellamanchili (mdl)","West Godavari",37,534268,"2018-06-30 22:47:44","2018-06-30 22:47:44"
"Poduru (mdl)","West Godavari",37,534267,"2018-06-30 22:47:44","2018-06-30 22:47:44"
"Tanuku","West Godavari",37,534211,"2018-06-30 22:47:44","2018-06-30 22:47:44"
"Iragavaram (mdl)","West Godavari",37,534217,"2018-06-30 22:47:44","2018-06-30 22:47:44"
"Palakol (mdl)","West Godavari",37,534265,"2018-06-30 22:47:44","2018-06-30 22:47:44"
"Kalla (mdl)","West Godavari",37,534237,"2018-06-30 22:47:44","2018-06-30 22:47:44"
"Poduru(mdl)","West Godavari",37,534338,"2018-06-30 22:47:44","2018-06-30 22:47:44"
"Peravali (mdl)","West Godavari",37,534330,"2018-06-30 22:47:44","2018-06-30 22:47:44"
"Atchanta (mdl)","West Godavari",37,534269,"2018-06-30 22:47:44","2018-06-30 22:47:44"
"Viravasaram(mdl)","West Godavari",37,534240,"2018-06-30 22:47:44","2018-06-30 22:47:44"
"Kalla (mdl)","West Godavari",37,534206,"2018-06-30 22:47:44","2018-06-30 22:47:44"
"Palacole","West Godavari",37,534260,"2018-06-30 22:47:44","2018-06-30 22:47:44"
"Viravasaram(mdl)","West Godavari",37,534250,"2018-06-30 22:47:44","2018-06-30 22:47:44"
"Tanuku (mdl)","West Godavari",37,534218,"2018-06-30 22:47:44","2018-06-30 22:47:44"
"Penumantra (mdl)","West Godavari",37,534122,"2018-06-30 22:47:44","2018-06-30 22:47:44"
"Palakoderu (mdl)","West Godavari",37,534209,"2018-06-30 22:47:44","2018-06-30 22:47:44"
"Mogalturu(mdl)","West Godavari",37,534281,"2018-06-30 22:47:44","2018-06-30 22:47:44"
"U.varam(mdl)","West Godavari",37,534227,"2018-06-30 22:47:44","2018-06-30 22:47:44"
"Narsapur (mdl)","West Godavari",37,534275,"2018-06-30 22:47:44","2018-06-30 22:47:44"
"Narasapuram","West Godavari",37,534275,"2018-06-30 22:47:44","2018-06-30 22:47:44"
"Palacole","West Godavari",37,534260,"2018-06-30 22:47:44","2018-06-30 22:47:44"
"Palakoderu (mdl)","West Godavari",37,534210,"2018-06-30 22:47:44","2018-06-30 22:47:44"
"Palakoderu(mdl)","West Godavari",37,534244,"2018-06-30 22:47:44","2018-06-30 22:47:44"
"Madanapalle","Chittoor",37,517370,"2018-06-30 22:47:44","2018-06-30 22:47:44"
"Madanapalle","Chittoor",37,517351,"2018-06-30 22:47:44","2018-06-30 22:47:44"
"Madanapalle","Chittoor",37,517319,"2018-06-30 22:47:44","2018-06-30 22:47:44"
"Madanpalle","Chittoor",37,517257,"2018-06-30 22:47:44","2018-06-30 22:47:44"
"Madanapalle","Chittoor",37,517325,"2018-06-30 22:47:44","2018-06-30 22:47:44"
"Madanapalle","Chittoor",37,517350,"2018-06-30 22:47:44","2018-06-30 22:47:44"
"Madanapalle","Chittoor",37,517326,"2018-06-30 22:47:44","2018-06-30 22:47:44"
"Madanapalle","Chittoor",37,517417,"2018-06-30 22:47:44","2018-06-30 22:47:44"
"Madanapalle","Chittoor",37,517390,"2018-06-30 22:47:44","2018-06-30 22:47:44"
"Palamaner","Chittoor",37,517408,"2018-06-30 22:47:44","2018-06-30 22:47:44"
"Chittoor","Chittoor",37,517124,"2018-06-30 22:47:44","2018-06-30 22:47:44"
"Chittoor","Chittoor",37,517403,"2018-06-30 22:47:44","2018-06-30 22:47:44"
"Chittoor","Chittoor",37,517001,"2018-06-30 22:47:44","2018-06-30 22:47:44"
"Chittoor","Chittoor",37,517421,"2018-06-30 22:47:44","2018-06-30 22:47:44"
"Chittoor","Chittoor",37,517599,"2018-06-30 22:47:44","2018-06-30 22:47:44"
"Chittoor","Chittoor",37,517422,"2018-06-30 22:47:44","2018-06-30 22:47:44"
"Madanapalle","Chittoor",37,517280,"2018-06-30 22:47:44","2018-06-30 22:47:44"
"Madanapalle","Chittoor",37,517391,"2018-06-30 22:47:44","2018-06-30 22:47:44"
"Madanapalle","Chittoor",37,517247,"2018-06-30 22:47:44","2018-06-30 22:47:44"
"Madanapalle","Chittoor",37,517352,"2018-06-30 22:47:44","2018-06-30 22:47:44"
"Madanapalle","Chittoor",37,517414,"2018-06-30 22:47:44","2018-06-30 22:47:44"
"Madanapalle","Chittoor",37,517325,"2018-06-30 22:47:44","2018-06-30 22:47:44"
"Madanapalle","Chittoor",37,517123,"2018-06-30 22:47:44","2018-06-30 22:47:44"
"Arugonda","Chittoor",37,517129,"2018-06-30 22:47:44","2018-06-30 22:47:44"
"Chittoor","Chittoor",37,517002,"2018-06-30 22:47:44","2018-06-30 22:47:44"
"Chittoor","Chittoor",37,517001,"2018-06-30 22:47:44","2018-06-30 22:47:44"
"Chittoor","Chittoor",37,517001,"2018-06-30 22:47:44","2018-06-30 22:47:44"
"Chittoor","Chittoor",37,517004,"2018-06-30 22:47:44","2018-06-30 22:47:44"
"Chittoor","Chittoor",37,517125,"2018-06-30 22:47:44","2018-06-30 22:47:44"
"Chittoor","Chittoor",37,517001,"2018-06-30 22:47:44","2018-06-30 22:47:44"
"Chittoor","Chittoor",37,517130,"2018-06-30 22:47:44","2018-06-30 22:47:44"
"Yadamarri","Chittoor",37,517128,"2018-06-30 22:47:44","2018-06-30 22:47:44"
"Chittoor","Chittoor",37,517131,"2018-06-30 22:47:44","2018-06-30 22:47:44"
"Chittoor","Chittoor",37,517167,"2018-06-30 22:47:44","2018-06-30 22:47:44"
"Chittoor","Chittoor",37,517002,"2018-06-30 22:47:44","2018-06-30 22:47:44"
"Chittoor","Chittoor",37,517127,"2018-06-30 22:47:44","2018-06-30 22:47:44"
"Chittoor","Chittoor",37,517132,"2018-06-30 22:47:44","2018-06-30 22:47:44"
"Chittoor","Chittoor",37,517419,"2018-06-30 22:47:44","2018-06-30 22:47:44"
"Chittoor","Chittoor",37,517126,"2018-06-30 22:47:44","2018-06-30 22:47:44"
"Madanapalle","Chittoor",37,517418,"2018-06-30 22:47:44","2018-06-30 22:47:44"
"Palamaner","Chittoor",37,517425,"2018-06-30 22:47:44","2018-06-30 22:47:44"
"Palamaner","Chittoor",37,517423,"2018-06-30 22:47:44","2018-06-30 22:47:44"
"Palamaner","Chittoor",37,517401,"2018-06-30 22:47:44","2018-06-30 22:47:44"
"Palamaner","Chittoor",37,517424,"2018-06-30 22:47:44","2018-06-30 22:47:44"
"Palamaner","Chittoor",37,517415,"2018-06-30 22:47:44","2018-06-30 22:47:44"
"Palamaner","Chittoor",37,517432,"2018-06-30 22:47:44","2018-06-30 22:47:44"
"Palamaner","Chittoor",37,517408,"2018-06-30 22:47:44","2018-06-30 22:47:44"
"Palamaner","Chittoor",37,517429,"2018-06-30 22:47:44","2018-06-30 22:47:44"
"Palamaner","Chittoor",37,517416,"2018-06-30 22:47:44","2018-06-30 22:47:44"
"Sydapuram","Nellore",37,524409,"2018-06-30 22:47:44","2018-06-30 22:47:44"
"Kaluvoya","Nellore",37,524343,"2018-06-30 22:47:44","2018-06-30 22:47:44"
"Podalakur","Nellore",37,524345,"2018-06-30 22:47:44","2018-06-30 22:47:44"
"Rapur","Nellore",37,524408,"2018-06-30 22:47:44","2018-06-30 22:47:44"
"Podalakur","Nellore",37,524309,"2018-06-30 22:47:44","2018-06-30 22:47:44"
"Balayapalli","Nellore",37,524404,"2018-06-30 22:47:44","2018-06-30 22:47:44"
"Gudur","Nellore",37,524406,"2018-06-30 22:47:44","2018-06-30 22:47:44"
"Dakkili","Nellore",37,524134,"2018-06-30 22:47:44","2018-06-30 22:47:44"
"Gudur","Nellore",37,524101,"2018-06-30 22:47:44","2018-06-30 22:47:44"
"Gudur","Nellore",37,524101,"2018-06-30 22:47:44","2018-06-30 22:47:44"
"Gudur","Nellore",37,524410,"2018-06-30 22:47:44","2018-06-30 22:47:44"
"Kota","Nellore",37,524411,"2018-06-30 22:47:44","2018-06-30 22:47:44"
"Vakadu","Nellore",37,524415,"2018-06-30 22:47:44","2018-06-30 22:47:44"
"Venkatagiri","Nellore",37,524132,"2018-06-30 22:47:44","2018-06-30 22:47:44"
"Venkatagiri","Nellore",37,524132,"2018-06-30 22:47:44","2018-06-30 22:47:44"
"Vakadu","Nellore",37,524413,"2018-06-30 22:47:44","2018-06-30 22:47:44"
"Vojili","Nellore",37,524402,"2018-06-30 22:47:44","2018-06-30 22:47:44"
"Gudur","Nellore",37,524412,"2018-06-30 22:47:44","2018-06-30 22:47:44"
"Gudur","Nellore",37,524131,"2018-06-30 22:47:44","2018-06-30 22:47:44"
"Manubolu","Nellore",37,524405,"2018-06-30 22:47:44","2018-06-30 22:47:44"
"Gudur","Nellore",37,524101,"2018-06-30 22:47:44","2018-06-30 22:47:44"
"Gudur","Nellore",37,524101,"2018-06-30 22:47:44","2018-06-30 22:47:44"
"Venkatachalam","Nellore",37,524323,"2018-06-30 22:47:44","2018-06-30 22:47:44"
"Survepalli","Nellore",37,524321,"2018-06-30 22:47:44","2018-06-30 22:47:44"
"Sydapuram","Nellore",37,524407,"2018-06-30 22:47:44","2018-06-30 22:47:44"
"Venkatachalam","Nellore",37,524320,"2018-06-30 22:47:44","2018-06-30 22:47:44"
"Sullurpeta","Nellore",37,524123,"2018-06-30 22:47:44","2018-06-30 22:47:44"
"Chittamur","Nellore",37,524403,"2018-06-30 22:47:44","2018-06-30 22:47:44"
"Naidupeta","Nellore",37,524421,"2018-06-30 22:47:44","2018-06-30 22:47:44"
"Naidupeta","Nellore",37,524126,"2018-06-30 22:47:44","2018-06-30 22:47:44"
"Pellakur","Nellore",37,524129,"2018-06-30 22:47:44","2018-06-30 22:47:44"
"Sullurpeta","Nellore",37,524121,"2018-06-30 22:47:44","2018-06-30 22:47:44"
"Sullurpeta","Nellore",37,524124,"2018-06-30 22:47:44","2018-06-30 22:47:44"
"Sullurpeta","Nellore",37,524121,"2018-06-30 22:47:44","2018-06-30 22:47:44"
"Tada","Nellore",37,524401,"2018-06-30 22:47:44","2018-06-30 22:47:44"
"Chittamur","Nellore",37,524127,"2018-06-30 22:47:44","2018-06-30 22:47:44"
"Chejerla","Nellore",37,524341,"2018-06-30 22:47:44","2018-06-30 22:47:44"
"Kaluvoya","Nellore",37,524342,"2018-06-30 22:47:44","2018-06-30 22:47:44"
"Rapur","Nellore",37,524414,"2018-06-30 22:47:44","2018-06-30 22:47:44"
"Pedapudi","East Godavari",37,533344,"2018-06-30 22:47:44","2018-06-30 22:47:44"
"Kakinada Rural","East Godavari",37,533006,"2018-06-30 22:47:44","2018-06-30 22:47:44"
"Kakinada (Urban)","East Godavari",37,533002,"2018-06-30 22:47:44","2018-06-30 22:47:44"
"Kakinada (Urban)","East Godavari",37,533001,"2018-06-30 22:47:44","2018-06-30 22:47:44"
"Kakinada (Urban)","East Godavari",37,533001,"2018-06-30 22:47:44","2018-06-30 22:47:44"
"Karapa","East Godavari",37,533462,"2018-06-30 22:47:44","2018-06-30 22:47:44"
"Kakinada (Urban)","East Godavari",37,533002,"2018-06-30 22:47:44","2018-06-30 22:47:44"
"Kakinada (Urban)","East Godavari",37,533003,"2018-06-30 22:47:44","2018-06-30 22:47:44"
"Kakinada (Urban)","East Godavari",37,533004,"2018-06-30 22:47:44","2018-06-30 22:47:44"
"Kakinada (Urban)","East Godavari",37,533003,"2018-06-30 22:47:44","2018-06-30 22:47:44"
"Kakinada (Urban)","East Godavari",37,533001,"2018-06-30 22:47:44","2018-06-30 22:47:44"
"Tallarevu","East Godavari",37,533463,"2018-06-30 22:47:44","2018-06-30 22:47:44"
"Kakinada (Urban)","East Godavari",37,533016,"2018-06-30 22:47:44","2018-06-30 22:47:44"
"Karapa","East Godavari",37,533260,"2018-06-30 22:47:44","2018-06-30 22:47:44"
"Satyavedu","Chittoor",37,517646,"2018-06-30 22:47:44","2018-06-30 22:47:44"
"Kukunoor","West Godavari",37,534444,"2018-06-30 22:47:44","2018-06-30 22:47:44"
"Tirupati","Chittoor",37,517507,"2018-06-30 22:47:44","2018-06-30 22:47:44"
"Guntur","Guntur",37,522034,"2018-06-30 22:47:44","2018-06-30 22:47:44"
"CUDDAPAH","Cuddapah",37,516005,"2018-06-30 22:47:44","2018-06-30 22:47:44"
"Peddapalli","Peddapalli",37,505416,"2018-06-30 22:47:44","2018-06-30 22:47:44"
"NA","Prakasam",37,523272,"2018-06-30 22:47:44","2018-06-30 22:47:44"
"Narasaraopet","Guntur",37,522601,"2018-06-30 22:47:44","2018-06-30 22:47:44"
"Narasaraopet","Guntur",37,522663,"2018-06-30 22:47:44","2018-06-30 22:47:44"
"Attili (mdl)","West Godavari",37,534134,"2018-06-30 22:47:44","2018-06-30 22:47:44"
"Narasaraopet","Guntur",37,522616,"2018-06-30 22:47:44","2018-06-30 22:47:44"
"Gangavaram","East Godavari",37,533284,"2018-06-30 22:47:44","2018-06-30 22:47:44"
"Rajanagaram","East Godavari",37,533296,"2018-06-30 22:47:44","2018-06-30 22:47:44"
"Rajahmundry Rural","East Godavari",37,533102,"2018-06-30 22:47:44","2018-06-30 22:47:44"
"Rajahmundry Rural","East Godavari",37,533107,"2018-06-30 22:47:44","2018-06-30 22:47:44"
"Mandapeta","East Godavari",37,533308,"2018-06-30 22:47:44","2018-06-30 22:47:44"
"Yadamarri","Chittoor",37,517128,"2018-06-30 22:47:44","2018-06-30 22:47:44"
"Gandepalli","East Godavari",37,533297,"2018-06-30 22:47:44","2018-06-30 22:47:44"
"Gollaprolu","East Godavari",37,533444,"2018-06-30 22:47:44","2018-06-30 22:47:44"
"Iragavaram(mdl)","West Godavari",37,534225,"2018-06-30 22:47:44","2018-06-30 22:47:44"
"Kuppam","Chittoor",37,517426,"2018-06-30 22:47:44","2018-06-30 22:47:44"
"Prakasam","Prakasam",37,523214,"2018-06-30 22:47:44","2018-06-30 22:47:44"
"Rajahmundry Rural","East Godavari",37,533101,"2018-06-30 22:47:44","2018-06-30 22:47:44"
"Addanki","Prakasam",37,523201,"2018-06-30 22:47:44","2018-06-30 22:47:44"
"Amalapuram","East Godavari",37,533201,"2018-06-30 22:47:44","2018-06-30 22:47:44"
"Razole","East Godavari",37,533242,"2018-06-30 22:47:44","2018-06-30 22:47:44"
"Anakapalle","Visakhapatnam",37,531001,"2018-06-30 22:47:44","2018-06-30 22:47:44"
"Narsipatnam","Visakhapatnam",37,531116,"2018-06-30 22:47:44","2018-06-30 22:47:44"
"Anantapur","Ananthapur",37,515001,"2018-06-30 22:47:44","2018-06-30 22:47:44"
"Bhimavaram (mdl)","West Godavari",37,534201,"2018-06-30 22:47:44","2018-06-30 22:47:44"
"Palakol(mdl)","West Godavari",37,534260,"2018-06-30 22:47:44","2018-06-30 22:47:44"
"Tanuku (mdl)","West Godavari",37,534211,"2018-06-30 22:47:44","2018-06-30 22:47:44"
"Chittoor","Chittoor",37,517001,"2018-06-30 22:47:44","2018-06-30 22:47:44"
"Madanapalle","Chittoor",37,517325,"2018-06-30 22:47:44","2018-06-30 22:47:44"
"Cuddapah","Cuddapah",37,516001,"2018-06-30 22:47:44","2018-06-30 22:47:44"
"Rajampet","Cuddapah",37,516115,"2018-06-30 22:47:44","2018-06-30 22:47:44"
"Eluru","West Godavari",37,534001,"2018-06-30 22:47:44","2018-06-30 22:47:44"
"J.r.gudem","West Godavari",37,534447,"2018-06-30 22:47:44","2018-06-30 22:47:44"
"Gudivada","Krishna",37,521301,"2018-06-30 22:47:44","2018-06-30 22:47:44"
"Nuzvid","Krishna",37,521201,"2018-06-30 22:47:44","2018-06-30 22:47:44"
"Gudur","Nellore",37,524101,"2018-06-30 22:47:44","2018-06-30 22:47:44"
"Guntakal","Ananthapur",37,515801,"2018-06-30 22:47:44","2018-06-30 22:47:44"
"Guntur","Guntur",37,522002,"2018-06-30 22:47:44","2018-06-30 22:47:44"
"Mangalagiri","Guntur",37,522503,"2018-06-30 22:47:44","2018-06-30 22:47:44"
"VR puram","East Godavari",37,533349,"2018-06-30 22:47:44","2018-06-30 22:47:44"
"Kunavaram","East Godavari",37,533350,"2018-06-30 22:47:44","2018-06-30 22:47:44"
"Hindupur","Ananthapur",37,515201,"2018-06-30 22:47:44","2018-06-30 22:47:44"
"Dharmavaram","Ananthapur",37,515671,"2018-06-30 22:47:44","2018-06-30 22:47:44"
"Kakinada","East Godavari",37,533001,"2018-06-30 22:47:44","2018-06-30 22:47:44"
"Kakinada","East Godavari",37,533440,"2018-06-30 22:47:44","2018-06-30 22:47:44"
"Nandyal","Kurnool",37,518501,"2018-06-30 22:47:44","2018-06-30 22:47:44"
"Markapur","Prakasam",37,523316,"2018-06-30 22:47:44","2018-06-30 22:47:44"
"Narasaraopet","Guntur",37,522601,"2018-06-30 22:47:44","2018-06-30 22:47:44"
"Sattenapalle","Guntur",37,522403,"2018-06-30 22:47:44","2018-06-30 22:47:44"
"Nellore","Nellore",37,524001,"2018-06-30 22:47:44","2018-06-30 22:47:44"
"Kavali","Nellore",37,524201,"2018-06-30 22:47:44","2018-06-30 22:47:44"
"Parvathipuram","Vizianagaram",37,535501,"2018-06-30 22:47:44","2018-06-30 22:47:44"
"Bobbili","Vizianagaram",37,535558,"2018-06-30 22:47:44","2018-06-30 22:47:44"
"Chirala","Prakasam",37,523155,"2018-06-30 22:47:44","2018-06-30 22:47:44"
"Kandukur","Prakasam",37,523105,"2018-06-30 22:47:44","2018-06-30 22:47:44"
"Kanigiri","Prakasam",37,523240,"2018-06-30 22:47:44","2018-06-30 22:47:44"
"Ongole","Prakasam",37,523001,"2018-06-30 22:47:44","2018-06-30 22:47:44"
"Proddatur","Cuddapah",37,516360,"2018-06-30 22:47:44","2018-06-30 22:47:44"
"Pulivendla","Cuddapah",37,516390,"2018-06-30 22:47:44","2018-06-30 22:47:44"
"Rajahmundry","East Godavari",37,533101,"2018-06-30 22:47:44","2018-06-30 22:47:44"
"Ramachandrapuram","East Godavari",37,533255,"2018-06-30 22:47:44","2018-06-30 22:47:44"
"Bandar","Krishna",37,521001,"2018-06-30 22:47:44","2018-06-30 22:47:44"
"Avanigadda","Krishna",37,521121,"2018-06-30 22:47:44","2018-06-30 22:47:44"
"Srikakulam","Srikakulam",37,532001,"2018-06-30 22:47:44","2018-06-30 22:47:44"
"Amadalavalasa","Srikakulam",37,532185,"2018-06-30 22:47:44","2018-06-30 22:47:44"
"Tekkali","Srikakulam",37,532201,"2018-06-30 22:47:44","2018-06-30 22:47:44"
"Kurnool","Kurnool",37,518001,"2018-06-30 22:47:44","2018-06-30 22:47:44"
"Adoni","Kurnool",37,518301,"2018-06-30 22:47:44","2018-06-30 22:47:44"
"Krishna","Krishna",37,520001,"2018-06-30 22:47:44","2018-06-30 22:47:44"
"Vijayawada (Urban)","Krishna",37,520002,"2018-06-30 22:47:44","2018-06-30 22:47:44"
"Tadepalligudem","West Godavari",37,534101,"2018-06-30 22:47:44","2018-06-30 22:47:44"
"Kovvur","West Godavari",37,534350,"2018-06-30 22:47:44","2018-06-30 22:47:44"
"Tenali","Guntur",37,522201,"2018-06-30 22:47:44","2018-06-30 22:47:44"
"Bapatla","Guntur",37,522101,"2018-06-30 22:47:44","2018-06-30 22:47:44"
"Tirupati (Urban)","Chittoor",37,517501,"2018-06-30 22:47:44","2018-06-30 22:47:44"
"Chandragiri","Chittoor",37,517101,"2018-06-30 22:47:44","2018-06-30 22:47:44"
"Srikalahasti","Chittoor",37,517644,"2018-06-30 22:47:44","2018-06-30 22:47:44"
"Visakhapatnam (Urban)","Visakhapatnam",37,530001,"2018-06-30 22:47:44","2018-06-30 22:47:44"
"Visakhapatnam (Urban)","Visakhapatnam",37,530004,"2018-06-30 22:47:44","2018-06-30 22:47:44"
"Vizianagaram","Vizianagaram",37,535002,"2018-06-30 22:47:44","2018-06-30 22:47:44"
"Chennekothapalle","Ananthapur",37,515651,"2018-06-30 22:47:44","2018-06-30 22:47:44"
"Bathalapalli","Ananthapur",37,515661,"2018-06-30 22:47:44","2018-06-30 22:47:44"
"Kanaganapalli","Ananthapur",37,515641,"2018-06-30 22:47:44","2018-06-30 22:47:44"
"Raptadu","Ananthapur",37,515722,"2018-06-30 22:47:44","2018-06-30 22:47:44"
"Mudigubba","Ananthapur",37,515501,"2018-06-30 22:47:44","2018-06-30 22:47:44"
"Lepakshi","Ananthapur",37,515331,"2018-06-30 22:47:44","2018-06-30 22:47:44"
"Tadimarri","Ananthapur",37,515631,"2018-06-30 22:47:44","2018-06-30 22:47:44"
"Talupula","Ananthapur",37,515581,"2018-06-30 22:47:44","2018-06-30 22:47:44"
"Talupula","Ananthapur",37,515581,"2018-06-30 22:47:44","2018-06-30 22:47:44"
"N.p. Kunta","Ananthapur",37,515581,"2018-06-30 22:47:44","2018-06-30 22:47:44"
"Talupula","Ananthapur",37,515581,"2018-06-30 22:47:44","2018-06-30 22:47:44"
"Talupula","Ananthapur",37,515581,"2018-06-30 22:47:44","2018-06-30 22:47:44"
"Talupula","Ananthapur",37,515581,"2018-06-30 22:47:44","2018-06-30 22:47:44"
"Talupula","Ananthapur",37,515581,"2018-06-30 22:47:44","2018-06-30 22:47:44"
"Talupula","Ananthapur",37,515581,"2018-06-30 22:47:44","2018-06-30 22:47:44"
"Talupula","Ananthapur",37,515581,"2018-06-30 22:47:44","2018-06-30 22:47:44"
"Talupula","Ananthapur",37,515581,"2018-06-30 22:47:44","2018-06-30 22:47:44"
"N.p. Kunta","Ananthapur",37,515581,"2018-06-30 22:47:44","2018-06-30 22:47:44"
"Talupula","Ananthapur",37,515581,"2018-06-30 22:47:44","2018-06-30 22:47:44"
"Tanakallu","Ananthapur",37,515571,"2018-06-30 22:47:44","2018-06-30 22:47:44"
"Tanakallu","Ananthapur",37,515571,"2018-06-30 22:47:44","2018-06-30 22:47:44"
"Tanakallu","Ananthapur",37,515571,"2018-06-30 22:47:44","2018-06-30 22:47:44"
"Tanakallu","Ananthapur",37,515571,"2018-06-30 22:47:44","2018-06-30 22:47:44"
"Tanakal","Ananthapur",37,515571,"2018-06-30 22:47:44","2018-06-30 22:47:44"
"Lepakshi","Ananthapur",37,515331,"2018-06-30 22:47:44","2018-06-30 22:47:44"
"Lepakshi","Ananthapur",37,515331,"2018-06-30 22:47:44","2018-06-30 22:47:44"
"Agali","Ananthapur",37,515311,"2018-06-30 22:47:44","2018-06-30 22:47:44"
"Agali","Ananthapur",37,515311,"2018-06-30 22:47:44","2018-06-30 22:47:44"
"Agali","Ananthapur",37,515311,"2018-06-30 22:47:44","2018-06-30 22:47:44"
"Agali","Ananthapur",37,515311,"2018-06-30 22:47:44","2018-06-30 22:47:44"
"Agali","Ananthapur",37,515311,"2018-06-30 22:47:44","2018-06-30 22:47:44"
"Agali","Ananthapur",37,515311,"2018-06-30 22:47:44","2018-06-30 22:47:44"
"Agali","Ananthapur",37,515311,"2018-06-30 22:47:44","2018-06-30 22:47:44"
"Agali","Ananthapur",37,515311,"2018-06-30 22:47:44","2018-06-30 22:47:44"
"Agali","Ananthapur",37,515311,"2018-06-30 22:47:44","2018-06-30 22:47:44"
"Amarapuram","Ananthapur",37,515281,"2018-06-30 22:47:44","2018-06-30 22:47:44"
"Amarapuram","Ananthapur",37,515281,"2018-06-30 22:47:44","2018-06-30 22:47:44"
"Amarapuram","Ananthapur",37,515281,"2018-06-30 22:47:44","2018-06-30 22:47:44"
"Amarapuram","Ananthapur",37,515281,"2018-06-30 22:47:44","2018-06-30 22:47:44"
"Amarapuram","Ananthapur",37,515281,"2018-06-30 22:47:44","2018-06-30 22:47:44"
"Tadimarri","Ananthapur",37,515631,"2018-06-30 22:47:44","2018-06-30 22:47:44"
"Bathalapalli","Ananthapur",37,515631,"2018-06-30 22:47:44","2018-06-30 22:47:44"
"Tadimarri","Ananthapur",37,515631,"2018-06-30 22:47:44","2018-06-30 22:47:44"
"Tadimarri","Ananthapur",37,515631,"2018-06-30 22:47:44","2018-06-30 22:47:44"
"Tadimarri","Ananthapur",37,515631,"2018-06-30 22:47:44","2018-06-30 22:47:44"
"Tadimarri","Ananthapur",37,515631,"2018-06-30 22:47:44","2018-06-30 22:47:44"
"Tadimarri","Ananthapur",37,515631,"2018-06-30 22:47:44","2018-06-30 22:47:44"
"Tadimarri","Ananthapur",37,515631,"2018-06-30 22:47:44","2018-06-30 22:47:44"
"Dharmavaram","Ananthapur",37,515631,"2018-06-30 22:47:44","2018-06-30 22:47:44"
"C.k. Palli","Ananthapur",37,515651,"2018-06-30 22:47:44","2018-06-30 22:47:44"
"C.k. Palli","Ananthapur",37,515651,"2018-06-30 22:47:44","2018-06-30 22:47:44"
"Mudigubba","Ananthapur",37,515511,"2018-06-30 22:47:44","2018-06-30 22:47:44"
"Mudigubba","Ananthapur",37,515511,"2018-06-30 22:47:44","2018-06-30 22:47:44"
"Mudigubba","Ananthapur",37,515511,"2018-06-30 22:47:44","2018-06-30 22:47:44"
"Mudigubba","Ananthapur",37,515511,"2018-06-30 22:47:44","2018-06-30 22:47:44"
"Mudigubba","Ananthapur",37,515511,"2018-06-30 22:47:44","2018-06-30 22:47:44"
"Mudigubba","Ananthapur",37,515511,"2018-06-30 22:47:44","2018-06-30 22:47:44"
"Mudigubba","Ananthapur",37,515511,"2018-06-30 22:47:44","2018-06-30 22:47:44"
"Nallacheruvu","Ananthapur",37,515551,"2018-06-30 22:47:44","2018-06-30 22:47:44"
"Nallacheruvu","Ananthapur",37,515551,"2018-06-30 22:47:44","2018-06-30 22:47:44"
"Nallacheruvu","Ananthapur",37,515551,"2018-06-30 22:47:44","2018-06-30 22:47:44"
"Nallacheruvu","Ananthapur",37,515551,"2018-06-30 22:47:44","2018-06-30 22:47:44"
"Ramagiri","Ananthapur",37,515621,"2018-06-30 22:47:44","2018-06-30 22:47:44"
"Ramagiri","Ananthapur",37,515621,"2018-06-30 22:47:44","2018-06-30 22:47:44"
"Kambaduru","Ananthapur",37,515621,"2018-06-30 22:47:44","2018-06-30 22:47:44"
"Kanaganapalle","Ananthapur",37,515621,"2018-06-30 22:47:44","2018-06-30 22:47:44"
"Penukonda","Ananthapur",37,515134,"2018-06-30 22:47:44","2018-06-30 22:47:44"
"Puttaparthi","Ananthapur",37,515134,"2018-06-30 22:47:44","2018-06-30 22:47:44"
"Puttaparthi","Ananthapur",37,515134,"2018-06-30 22:47:44","2018-06-30 22:47:44"
"Puttaparthi","Ananthapur",37,515134,"2018-06-30 22:47:44","2018-06-30 22:47:44"
"Puttaparthi","Ananthapur",37,515134,"2018-06-30 22:47:44","2018-06-30 22:47:44"
"Tadimarri","Ananthapur",37,515631,"2018-06-30 22:47:44","2018-06-30 22:47:44"
"Penukonda","Ananthapur",37,515164,"2018-06-30 22:47:44","2018-06-30 22:47:44"
"Penukonda","Ananthapur",37,515164,"2018-06-30 22:47:44","2018-06-30 22:47:44"
"Gudibanda","Ananthapur",37,515286,"2018-06-30 22:47:44","2018-06-30 22:47:44"
"Madakasira","Ananthapur",37,515291,"2018-06-30 22:47:44","2018-06-30 22:47:44"
"Madakasira","Ananthapur",37,515291,"2018-06-30 22:47:44","2018-06-30 22:47:44"
"Rolla","Ananthapur",37,515291,"2018-06-30 22:47:44","2018-06-30 22:47:44"
"Madakasira","Ananthapur",37,515291,"2018-06-30 22:47:44","2018-06-30 22:47:44"
"Rolla","Ananthapur",37,515291,"2018-06-30 22:47:44","2018-06-30 22:47:44"
"Madakasira","Ananthapur",37,515291,"2018-06-30 22:47:44","2018-06-30 22:47:44"
"Gudibanda","Ananthapur",37,515291,"2018-06-30 22:47:44","2018-06-30 22:47:44"
"Parigi","Ananthapur",37,515261,"2018-06-30 22:47:44","2018-06-30 22:47:44"
"Parigi","Ananthapur",37,515261,"2018-06-30 22:47:44","2018-06-30 22:47:44"
"Parigi","Ananthapur",37,515261,"2018-06-30 22:47:44","2018-06-30 22:47:44"
"Parigi","Ananthapur",37,515261,"2018-06-30 22:47:44","2018-06-30 22:47:44"
"Parigi","Ananthapur",37,515261,"2018-06-30 22:47:44","2018-06-30 22:47:44"
"Parigi","Ananthapur",37,515261,"2018-06-30 22:47:44","2018-06-30 22:47:44"
"Parigi","Ananthapur",37,515261,"2018-06-30 22:47:44","2018-06-30 22:47:44"
"Kothacheruvu","Ananthapur",37,515110,"2018-06-30 22:47:44","2018-06-30 22:47:44"
"Kothacheruvu","Ananthapur",37,515110,"2018-06-30 22:47:44","2018-06-30 22:47:44"
"Penukonda","Ananthapur",37,515110,"2018-06-30 22:47:44","2018-06-30 22:47:44"
"Penukonda","Ananthapur",37,515110,"2018-06-30 22:47:44","2018-06-30 22:47:44"
"Penukonda","Ananthapur",37,515110,"2018-06-30 22:47:44","2018-06-30 22:47:44"
"Penukonda","Ananthapur",37,515110,"2018-06-30 22:47:44","2018-06-30 22:47:44"
"Puttaparthi","Ananthapur",37,515110,"2018-06-30 22:47:44","2018-06-30 22:47:44"
"Puttaparthi","Ananthapur",37,515110,"2018-06-30 22:47:44","2018-06-30 22:47:44"
"Penukonda","Ananthapur",37,515110,"2018-06-30 22:47:44","2018-06-30 22:47:44"
"Nallacheruvu","Ananthapur",37,515551,"2018-06-30 22:47:44","2018-06-30 22:47:44"
"Obuladevaracheruvu","Ananthapur",37,515561,"2018-06-30 22:47:44","2018-06-30 22:47:44"
"Obuladevaracheruvu","Ananthapur",37,515561,"2018-06-30 22:47:44","2018-06-30 22:47:44"
"Amadaguru","Ananthapur",37,515561,"2018-06-30 22:47:44","2018-06-30 22:47:44"
"Amadaguru","Ananthapur",37,515561,"2018-06-30 22:47:44","2018-06-30 22:47:44"
"Obuladevaracheruvu","Ananthapur",37,515561,"2018-06-30 22:47:44","2018-06-30 22:47:44"
"Obuladevaracheruvu","Ananthapur",37,515561,"2018-06-30 22:47:44","2018-06-30 22:47:44"
"O.d. Cheruvu","Ananthapur",37,515561,"2018-06-30 22:47:44","2018-06-30 22:47:44"
"O.d. Cheruvu","Ananthapur",37,515561,"2018-06-30 22:47:44","2018-06-30 22:47:44"
"O.d. Cheruvu","Ananthapur",37,515561,"2018-06-30 22:47:44","2018-06-30 22:47:44"
"O.d. Cheruvu","Ananthapur",37,515561,"2018-06-30 22:47:44","2018-06-30 22:47:44"
"Bukkapatnam","Ananthapur",37,515154,"2018-06-30 22:47:44","2018-06-30 22:47:44"
"Bukkapatnam","Ananthapur",37,515154,"2018-06-30 22:47:44","2018-06-30 22:47:44"
"Gudibanda","Ananthapur",37,515271,"2018-06-30 22:47:44","2018-06-30 22:47:44"
"Gudibanda","Ananthapur",37,515271,"2018-06-30 22:47:44","2018-06-30 22:47:44"
"Gudibanda","Ananthapur",37,515271,"2018-06-30 22:47:44","2018-06-30 22:47:44"
"Gudibanda","Ananthapur",37,515271,"2018-06-30 22:47:44","2018-06-30 22:47:44"
"Rolla","Ananthapur",37,515271,"2018-06-30 22:47:44","2018-06-30 22:47:44"
"Gudibanda","Ananthapur",37,515271,"2018-06-30 22:47:44","2018-06-30 22:47:44"
"Gudibanda","Ananthapur",37,515271,"2018-06-30 22:47:44","2018-06-30 22:47:44"
"Rolla","Ananthapur",37,515271,"2018-06-30 22:47:44","2018-06-30 22:47:44"
"Penukonda","Ananthapur",37,515164,"2018-06-30 22:47:44","2018-06-30 22:47:44"
"Penukonda","Ananthapur",37,515164,"2018-06-30 22:47:44","2018-06-30 22:47:44"
"Penukonda","Ananthapur",37,515110,"2018-06-30 22:47:44","2018-06-30 22:47:44"
"Penukonda","Ananthapur",37,515110,"2018-06-30 22:47:44","2018-06-30 22:47:44"
"Penukonda","Ananthapur",37,515124,"2018-06-30 22:47:44","2018-06-30 22:47:44"
"Somandepalli","Ananthapur",37,515124,"2018-06-30 22:47:44","2018-06-30 22:47:44"
"Roddam","Ananthapur",37,515124,"2018-06-30 22:47:44","2018-06-30 22:47:44"
"Roddam","Ananthapur",37,515124,"2018-06-30 22:47:44","2018-06-30 22:47:44"
"Roddam","Ananthapur",37,515124,"2018-06-30 22:47:44","2018-06-30 22:47:44"
"Roddam","Ananthapur",37,515124,"2018-06-30 22:47:44","2018-06-30 22:47:44"
"Somandepalli","Ananthapur",37,515124,"2018-06-30 22:47:44","2018-06-30 22:47:44"
"Penukonda","Ananthapur",37,515124,"2018-06-30 22:47:44","2018-06-30 22:47:44"
"Penukonda","Ananthapur",37,515124,"2018-06-30 22:47:44","2018-06-30 22:47:44"
"Roddam","Ananthapur",37,515124,"2018-06-30 22:47:44","2018-06-30 22:47:44"
"Roddam","Ananthapur",37,515124,"2018-06-30 22:47:44","2018-06-30 22:47:44"
"Amarapuram","Ananthapur",37,515305,"2018-06-30 22:47:44","2018-06-30 22:47:44"
"Madakasira","Ananthapur",37,515305,"2018-06-30 22:47:44","2018-06-30 22:47:44"
"Gudibanda","Ananthapur",37,515305,"2018-06-30 22:47:44","2018-06-30 22:47:44"
"Gudibanda","Ananthapur",37,515305,"2018-06-30 22:47:44","2018-06-30 22:47:44"
"Gudibanda","Ananthapur",37,515305,"2018-06-30 22:47:44","2018-06-30 22:47:44"
"Gudibanda","Ananthapur",37,515305,"2018-06-30 22:47:44","2018-06-30 22:47:44"
"Gudibanda","Ananthapur",37,515305,"2018-06-30 22:47:44","2018-06-30 22:47:44"
"Rolla","Ananthapur",37,515321,"2018-06-30 22:47:44","2018-06-30 22:47:44"
"Rolla","Ananthapur",37,515321,"2018-06-30 22:47:44","2018-06-30 22:47:44"
"Rolla","Ananthapur",37,515321,"2018-06-30 22:47:44","2018-06-30 22:47:44"
"Rolla","Ananthapur",37,515321,"2018-06-30 22:47:44","2018-06-30 22:47:44"
"Rolla","Ananthapur",37,515321,"2018-06-30 22:47:44","2018-06-30 22:47:44"
"Chilamathur","Ananthapur",37,515341,"2018-06-30 22:47:44","2018-06-30 22:47:44"
"Chilamathur","Ananthapur",37,515341,"2018-06-30 22:47:44","2018-06-30 22:47:44"
"Chilamathur","Ananthapur",37,515341,"2018-06-30 22:47:44","2018-06-30 22:47:44"
"Chilamathur","Ananthapur",37,515341,"2018-06-30 22:47:44","2018-06-30 22:47:44"
"Chilamathur","Ananthapur",37,515341,"2018-06-30 22:47:44","2018-06-30 22:47:44"
"Gorantla","Ananthapur",37,515231,"2018-06-30 22:47:44","2018-06-30 22:47:44"
"Gorantla","Ananthapur",37,515231,"2018-06-30 22:47:44","2018-06-30 22:47:44"
"Gorantla","Ananthapur",37,515231,"2018-06-30 22:47:44","2018-06-30 22:47:44"
"Gorantla","Ananthapur",37,515231,"2018-06-30 22:47:44","2018-06-30 22:47:44"
"Gorantla","Ananthapur",37,515231,"2018-06-30 22:47:44","2018-06-30 22:47:44"
"Gorantla","Ananthapur",37,515231,"2018-06-30 22:47:44","2018-06-30 22:47:44"
"Gorantla","Ananthapur",37,515231,"2018-06-30 22:47:44","2018-06-30 22:47:44"
"Gorantla","Ananthapur",37,515231,"2018-06-30 22:47:44","2018-06-30 22:47:44"
